<?xml version="1.0" encoding="UTF-8"?>
<gpx xmlns="http://www.topografix.com/GPX/1/1" xmlns:xsi="http://www.w3.org/2001/XMLSchema-instance" xsi:schemaLocation="http://www.topografix.com/GPX/1/1 http://www.topografix.com/GPX/1/1/gpx.xsd" version="1.1" creator="gpx.py -- https://github.com/tkrajina/gpxpy">
  <trk>
    <trkseg>
      <trkpt lat="68.758488029306" lon="26.233485215372">
        <ele>163.80000305176</ele>
        <time>2023-12-31T09:33:00Z</time>
      </trkpt>
      <trkpt lat="68.758489744816" lon="26.233453907658">
        <ele>163.80000305176</ele>
        <time>2023-12-31T09:33:05Z</time>
      </trkpt>
      <trkpt lat="68.758491460326" lon="26.233422599945">
        <ele>163.80000305176</ele>
        <time>2023-12-31T09:33:10Z</time>
      </trkpt>
      <trkpt lat="68.758493175836" lon="26.233391292231">
        <ele>163.80000305176</ele>
        <time>2023-12-31T09:33:15Z</time>
      </trkpt>
      <trkpt lat="68.758494891346" lon="26.233359984518">
        <ele>163.80000305176</ele>
        <time>2023-12-31T09:33:20Z</time>
      </trkpt>
      <trkpt lat="68.758496606856" lon="26.233328676804">
        <ele>163.80000305176</ele>
        <time>2023-12-31T09:33:25Z</time>
      </trkpt>
      <trkpt lat="68.758498322367" lon="26.23329736909">
        <ele>163.80000305176</ele>
        <time>2023-12-31T09:33:30Z</time>
      </trkpt>
      <trkpt lat="68.758500037877" lon="26.233266061377">
        <ele>163.80000305176</ele>
        <time>2023-12-31T09:33:35Z</time>
      </trkpt>
      <trkpt lat="68.758501753387" lon="26.233234753663">
        <ele>163.80000305176</ele>
        <time>2023-12-31T09:33:40Z</time>
      </trkpt>
      <trkpt lat="68.758503468897" lon="26.23320344595">
        <ele>163.80000305176</ele>
        <time>2023-12-31T09:33:45Z</time>
      </trkpt>
      <trkpt lat="68.758505184407" lon="26.233172138236">
        <ele>163.80000305176</ele>
        <time>2023-12-31T09:33:50Z</time>
      </trkpt>
      <trkpt lat="68.758506899917" lon="26.233140830523">
        <ele>163.80000305176</ele>
        <time>2023-12-31T09:33:55Z</time>
      </trkpt>
      <trkpt lat="68.758508615427" lon="26.233109522809">
        <ele>163.80000305176</ele>
        <time>2023-12-31T09:34:00Z</time>
      </trkpt>
      <trkpt lat="68.758510330937" lon="26.233078215095">
        <ele>163.80000305176</ele>
        <time>2023-12-31T09:34:05Z</time>
      </trkpt>
      <trkpt lat="68.758512046447" lon="26.233046907382">
        <ele>163.80000305176</ele>
        <time>2023-12-31T09:34:10Z</time>
      </trkpt>
      <trkpt lat="68.758513761957" lon="26.233015599668">
        <ele>163.80000305176</ele>
        <time>2023-12-31T09:34:15Z</time>
      </trkpt>
      <trkpt lat="68.758515477467" lon="26.232984291955">
        <ele>163.80000305176</ele>
        <time>2023-12-31T09:34:20Z</time>
      </trkpt>
      <trkpt lat="68.758517192977" lon="26.232952984241">
        <ele>163.80000305176</ele>
        <time>2023-12-31T09:34:25Z</time>
      </trkpt>
      <trkpt lat="68.758518908488" lon="26.232921676527">
        <ele>163.80000305176</ele>
        <time>2023-12-31T09:34:30Z</time>
      </trkpt>
      <trkpt lat="68.758520623998" lon="26.232890368814">
        <ele>163.80000305176</ele>
        <time>2023-12-31T09:34:35Z</time>
      </trkpt>
      <trkpt lat="68.758522339508" lon="26.2328590611">
        <ele>163.80000305176</ele>
        <time>2023-12-31T09:34:40Z</time>
      </trkpt>
      <trkpt lat="68.758524055018" lon="26.232827753387">
        <ele>163.80000305176</ele>
        <time>2023-12-31T09:34:45Z</time>
      </trkpt>
      <trkpt lat="68.758525770528" lon="26.232796445673">
        <ele>163.80000305176</ele>
        <time>2023-12-31T09:34:50Z</time>
      </trkpt>
      <trkpt lat="68.758527486038" lon="26.23276513796">
        <ele>163.80000305176</ele>
        <time>2023-12-31T09:34:55Z</time>
      </trkpt>
      <trkpt lat="68.758529201548" lon="26.232733830246">
        <ele>163.80000305176</ele>
        <time>2023-12-31T09:35:00Z</time>
      </trkpt>
      <trkpt lat="68.758530917058" lon="26.232702522532">
        <ele>163.80000305176</ele>
        <time>2023-12-31T09:35:05Z</time>
      </trkpt>
      <trkpt lat="68.758532632568" lon="26.232671214819">
        <ele>163.80000305176</ele>
        <time>2023-12-31T09:35:10Z</time>
      </trkpt>
      <trkpt lat="68.758534348078" lon="26.232639907105">
        <ele>163.80000305176</ele>
        <time>2023-12-31T09:35:15Z</time>
      </trkpt>
      <trkpt lat="68.758536063588" lon="26.232608599392">
        <ele>163.80000305176</ele>
        <time>2023-12-31T09:35:20Z</time>
      </trkpt>
      <trkpt lat="68.758537779098" lon="26.232577291678">
        <ele>163.80000305176</ele>
        <time>2023-12-31T09:35:25Z</time>
      </trkpt>
      <trkpt lat="68.758539494608" lon="26.232545983965">
        <ele>163.80000305176</ele>
        <time>2023-12-31T09:35:30Z</time>
      </trkpt>
      <trkpt lat="68.758541210119" lon="26.232514676251">
        <ele>163.80000305176</ele>
        <time>2023-12-31T09:35:35Z</time>
      </trkpt>
      <trkpt lat="68.758542925629" lon="26.232483368537">
        <ele>163.80000305176</ele>
        <time>2023-12-31T09:35:40Z</time>
      </trkpt>
      <trkpt lat="68.758544641139" lon="26.232452060824">
        <ele>163.80000305176</ele>
        <time>2023-12-31T09:35:45Z</time>
      </trkpt>
      <trkpt lat="68.758546356649" lon="26.23242075311">
        <ele>163.80000305176</ele>
        <time>2023-12-31T09:35:50Z</time>
      </trkpt>
      <trkpt lat="68.758548072159" lon="26.232389445397">
        <ele>163.80000305176</ele>
        <time>2023-12-31T09:35:55Z</time>
      </trkpt>
      <trkpt lat="68.758549787669" lon="26.232358137683">
        <ele>163.80000305176</ele>
        <time>2023-12-31T09:36:00Z</time>
      </trkpt>
      <trkpt lat="68.758551503179" lon="26.232326829969">
        <ele>163.80000305176</ele>
        <time>2023-12-31T09:36:05Z</time>
      </trkpt>
      <trkpt lat="68.758553218689" lon="26.232295522256">
        <ele>163.80000305176</ele>
        <time>2023-12-31T09:36:10Z</time>
      </trkpt>
      <trkpt lat="68.758554934199" lon="26.232264214542">
        <ele>163.80000305176</ele>
        <time>2023-12-31T09:36:15Z</time>
      </trkpt>
      <trkpt lat="68.758556649709" lon="26.232232906829">
        <ele>163.80000305176</ele>
        <time>2023-12-31T09:36:20Z</time>
      </trkpt>
      <trkpt lat="68.758558365219" lon="26.232201599115">
        <ele>163.80000305176</ele>
        <time>2023-12-31T09:36:25Z</time>
      </trkpt>
      <trkpt lat="68.758560080729" lon="26.232170291402">
        <ele>163.80000305176</ele>
        <time>2023-12-31T09:36:30Z</time>
      </trkpt>
      <trkpt lat="68.75856179624" lon="26.232138983688">
        <ele>163.80000305176</ele>
        <time>2023-12-31T09:36:35Z</time>
      </trkpt>
      <trkpt lat="68.75856351175" lon="26.232107675974">
        <ele>163.80000305176</ele>
        <time>2023-12-31T09:36:40Z</time>
      </trkpt>
      <trkpt lat="68.75856522726" lon="26.232076368261">
        <ele>163.80000305176</ele>
        <time>2023-12-31T09:36:45Z</time>
      </trkpt>
      <trkpt lat="68.75856694277" lon="26.232045060547">
        <ele>163.80000305176</ele>
        <time>2023-12-31T09:36:50Z</time>
      </trkpt>
      <trkpt lat="68.75856865828" lon="26.232013752834">
        <ele>163.80000305176</ele>
        <time>2023-12-31T09:36:55Z</time>
      </trkpt>
      <trkpt lat="68.75857037379" lon="26.23198244512">
        <ele>163.80000305176</ele>
        <time>2023-12-31T09:37:00Z</time>
      </trkpt>
      <trkpt lat="68.7585720893" lon="26.231951137407">
        <ele>163.80000305176</ele>
        <time>2023-12-31T09:37:05Z</time>
      </trkpt>
      <trkpt lat="68.75857380481" lon="26.231919829693">
        <ele>163.80000305176</ele>
        <time>2023-12-31T09:37:10Z</time>
      </trkpt>
      <trkpt lat="68.75857552032" lon="26.231888521979">
        <ele>163.80000305176</ele>
        <time>2023-12-31T09:37:15Z</time>
      </trkpt>
      <trkpt lat="68.75857723583" lon="26.231857214266">
        <ele>163.80000305176</ele>
        <time>2023-12-31T09:37:20Z</time>
      </trkpt>
      <trkpt lat="68.75857895134" lon="26.231825906552">
        <ele>163.80000305176</ele>
        <time>2023-12-31T09:37:25Z</time>
      </trkpt>
      <trkpt lat="68.75858066685" lon="26.231794598839">
        <ele>163.80000305176</ele>
        <time>2023-12-31T09:37:30Z</time>
      </trkpt>
      <trkpt lat="68.75858238236" lon="26.231763291125">
        <ele>163.80000305176</ele>
        <time>2023-12-31T09:37:35Z</time>
      </trkpt>
      <trkpt lat="68.758584097871" lon="26.231731983412">
        <ele>163.80000305176</ele>
        <time>2023-12-31T09:37:40Z</time>
      </trkpt>
      <trkpt lat="68.758585813381" lon="26.231700675698">
        <ele>163.80000305176</ele>
        <time>2023-12-31T09:37:45Z</time>
      </trkpt>
      <trkpt lat="68.758587528891" lon="26.231669367984">
        <ele>163.80000305176</ele>
        <time>2023-12-31T09:37:50Z</time>
      </trkpt>
      <trkpt lat="68.758589244401" lon="26.231638060271">
        <ele>163.80000305176</ele>
        <time>2023-12-31T09:37:55Z</time>
      </trkpt>
      <trkpt lat="68.758590959911" lon="26.231606752557">
        <ele>163.80000305176</ele>
        <time>2023-12-31T09:38:00Z</time>
      </trkpt>
      <trkpt lat="68.758592675421" lon="26.231575444844">
        <ele>163.80000305176</ele>
        <time>2023-12-31T09:38:05Z</time>
      </trkpt>
      <trkpt lat="68.758594390931" lon="26.23154413713">
        <ele>163.80000305176</ele>
        <time>2023-12-31T09:38:10Z</time>
      </trkpt>
      <trkpt lat="68.758596106441" lon="26.231512829416">
        <ele>163.80000305176</ele>
        <time>2023-12-31T09:38:15Z</time>
      </trkpt>
      <trkpt lat="68.758597821951" lon="26.231481521703">
        <ele>163.80000305176</ele>
        <time>2023-12-31T09:38:20Z</time>
      </trkpt>
      <trkpt lat="68.758599537461" lon="26.231450213989">
        <ele>163.80000305176</ele>
        <time>2023-12-31T09:38:25Z</time>
      </trkpt>
      <trkpt lat="68.758601252971" lon="26.231418906276">
        <ele>163.80000305176</ele>
        <time>2023-12-31T09:38:30Z</time>
      </trkpt>
      <trkpt lat="68.758602968481" lon="26.231387598562">
        <ele>163.80000305176</ele>
        <time>2023-12-31T09:38:35Z</time>
      </trkpt>
      <trkpt lat="68.758604683992" lon="26.231356290849">
        <ele>163.80000305176</ele>
        <time>2023-12-31T09:38:40Z</time>
      </trkpt>
      <trkpt lat="68.758606399502" lon="26.231324983135">
        <ele>163.80000305176</ele>
        <time>2023-12-31T09:38:45Z</time>
      </trkpt>
      <trkpt lat="68.758608115012" lon="26.231293675421">
        <ele>163.80000305176</ele>
        <time>2023-12-31T09:38:50Z</time>
      </trkpt>
      <trkpt lat="68.758609830522" lon="26.231262367708">
        <ele>163.80000305176</ele>
        <time>2023-12-31T09:38:55Z</time>
      </trkpt>
      <trkpt lat="68.758611546032" lon="26.231231059994">
        <ele>163.80000305176</ele>
        <time>2023-12-31T09:39:00Z</time>
      </trkpt>
      <trkpt lat="68.758613261542" lon="26.231199752281">
        <ele>163.80000305176</ele>
        <time>2023-12-31T09:39:05Z</time>
      </trkpt>
      <trkpt lat="68.758614977052" lon="26.231168444567">
        <ele>163.80000305176</ele>
        <time>2023-12-31T09:39:10Z</time>
      </trkpt>
      <trkpt lat="68.758616692562" lon="26.231137136854">
        <ele>163.80000305176</ele>
        <time>2023-12-31T09:39:15Z</time>
      </trkpt>
      <trkpt lat="68.758618408072" lon="26.23110582914">
        <ele>163.80000305176</ele>
        <time>2023-12-31T09:39:20Z</time>
      </trkpt>
      <trkpt lat="68.758620123582" lon="26.231074521426">
        <ele>163.80000305176</ele>
        <time>2023-12-31T09:39:25Z</time>
      </trkpt>
      <trkpt lat="68.758621839092" lon="26.231043213713">
        <ele>163.80000305176</ele>
        <time>2023-12-31T09:39:30Z</time>
      </trkpt>
      <trkpt lat="68.758623554602" lon="26.231011905999">
        <ele>163.80000305176</ele>
        <time>2023-12-31T09:39:35Z</time>
      </trkpt>
      <trkpt lat="68.758625270113" lon="26.230980598286">
        <ele>163.80000305176</ele>
        <time>2023-12-31T09:39:40Z</time>
      </trkpt>
      <trkpt lat="68.758626985623" lon="26.230949290572">
        <ele>163.80000305176</ele>
        <time>2023-12-31T09:39:45Z</time>
      </trkpt>
      <trkpt lat="68.758628701133" lon="26.230917982859">
        <ele>163.80000305176</ele>
        <time>2023-12-31T09:39:50Z</time>
      </trkpt>
      <trkpt lat="68.758630416643" lon="26.230886675145">
        <ele>163.80000305176</ele>
        <time>2023-12-31T09:39:55Z</time>
      </trkpt>
      <trkpt lat="68.758632132153" lon="26.230855367431">
        <ele>163.80000305176</ele>
        <time>2023-12-31T09:40:00Z</time>
      </trkpt>
      <trkpt lat="68.758633847663" lon="26.230824059718">
        <ele>163.80000305176</ele>
        <time>2023-12-31T09:40:05Z</time>
      </trkpt>
      <trkpt lat="68.758635563173" lon="26.230792752004">
        <ele>163.80000305176</ele>
        <time>2023-12-31T09:40:10Z</time>
      </trkpt>
      <trkpt lat="68.758637278683" lon="26.230761444291">
        <ele>163.80000305176</ele>
        <time>2023-12-31T09:40:15Z</time>
      </trkpt>
      <trkpt lat="68.758638994193" lon="26.230730136577">
        <ele>163.80000305176</ele>
        <time>2023-12-31T09:40:20Z</time>
      </trkpt>
      <trkpt lat="68.758640709703" lon="26.230698828863">
        <ele>163.80000305176</ele>
        <time>2023-12-31T09:40:25Z</time>
      </trkpt>
      <trkpt lat="68.758642425213" lon="26.23066752115">
        <ele>163.80000305176</ele>
        <time>2023-12-31T09:40:30Z</time>
      </trkpt>
      <trkpt lat="68.758644140723" lon="26.230636213436">
        <ele>163.80000305176</ele>
        <time>2023-12-31T09:40:35Z</time>
      </trkpt>
      <trkpt lat="68.758645856233" lon="26.230604905723">
        <ele>163.80000305176</ele>
        <time>2023-12-31T09:40:40Z</time>
      </trkpt>
      <trkpt lat="68.758647571744" lon="26.230573598009">
        <ele>163.80000305176</ele>
        <time>2023-12-31T09:40:45Z</time>
      </trkpt>
      <trkpt lat="68.758649287254" lon="26.230542290296">
        <ele>163.80000305176</ele>
        <time>2023-12-31T09:40:50Z</time>
      </trkpt>
      <trkpt lat="68.758651002764" lon="26.230510982582">
        <ele>163.80000305176</ele>
        <time>2023-12-31T09:40:55Z</time>
      </trkpt>
      <trkpt lat="68.758652718274" lon="26.230479674868">
        <ele>163.80000305176</ele>
        <time>2023-12-31T09:41:00Z</time>
      </trkpt>
      <trkpt lat="68.758654433784" lon="26.230448367155">
        <ele>163.80000305176</ele>
        <time>2023-12-31T09:41:05Z</time>
      </trkpt>
      <trkpt lat="68.758656149294" lon="26.230417059441">
        <ele>163.80000305176</ele>
        <time>2023-12-31T09:41:10Z</time>
      </trkpt>
    </trkseg>
  </trk>
</gpx>