<?xml version="1.0" encoding="UTF-8"?>
<gpx creator="Garmin Fenix 6 Pro Solar (Black)" xmlns:xsi="http://www.w3.org/2001/XMLSchema-instance" xsi:schemaLocation="http://www.topografix.com/GPX/1/1 http://www.topografix.com/GPX/1/1/gpx.xsd http://www.garmin.com/xmlschemas/GpxExtensions/v3 http://www.garmin.com/xmlschemas/GpxExtensionsv3.xsd http://www.garmin.com/xmlschemas/TrackPointExtension/v1 http://www.garmin.com/xmlschemas/TrackPointExtensionv1.xsd" version="1.1" xmlns="http://www.topografix.com/GPX/1/1" xmlns:gpxtpx="http://www.garmin.com/xmlschemas/TrackPointExtension/v1" xmlns:gpxx="http://www.garmin.com/xmlschemas/GpxExtensions/v3">
  <metadata>
    <link href="https://gotoes.org/strava/Combine_GPX_TCX_FIT_Files.php">
      <text>GOTOES STRAVA TOOLS</text>
    </link>
    <desc>Created with GOTOES STRAVA TOOLS Version 23.3</desc>
    <time>2023-12-31T09:26:28Z</time>
  </metadata>
  <trk>
    <name>GOTOES Export</name>
    <type>BackcountrySki</type>
    <trkseg>
      <trkpt lon="26.233497738457" lat="68.758487343102">
        <ele>163.80000305176</ele>
        <time>2023-12-31T09:32:58Z</time>
      </trkpt>
      <trkpt lon="26.233491476915" lat="68.758487686204">
        <ele>163.80000305176</ele>
        <time>2023-12-31T09:32:59Z</time>
      </trkpt>
      <trkpt lon="26.233485215372" lat="68.758488029306">
        <ele>163.80000305176</ele>
        <time>2023-12-31T09:33:00Z</time>
      </trkpt>
      <trkpt lon="26.233478953829" lat="68.758488372408">
        <ele>163.80000305176</ele>
        <time>2023-12-31T09:33:01Z</time>
      </trkpt>
      <trkpt lon="26.233472692286" lat="68.75848871551">
        <ele>163.80000305176</ele>
        <time>2023-12-31T09:33:02Z</time>
      </trkpt>
      <trkpt lon="26.233466430744" lat="68.758489058612">
        <ele>163.80000305176</ele>
        <time>2023-12-31T09:33:03Z</time>
      </trkpt>
      <trkpt lon="26.233460169201" lat="68.758489401714">
        <ele>163.80000305176</ele>
        <time>2023-12-31T09:33:04Z</time>
      </trkpt>
      <trkpt lon="26.233453907658" lat="68.758489744816">
        <ele>163.80000305176</ele>
        <time>2023-12-31T09:33:05Z</time>
      </trkpt>
      <trkpt lon="26.233447646116" lat="68.758490087918">
        <ele>163.80000305176</ele>
        <time>2023-12-31T09:33:06Z</time>
      </trkpt>
      <trkpt lon="26.233441384573" lat="68.75849043102">
        <ele>163.80000305176</ele>
        <time>2023-12-31T09:33:07Z</time>
      </trkpt>
      <trkpt lon="26.23343512303" lat="68.758490774122">
        <ele>163.80000305176</ele>
        <time>2023-12-31T09:33:08Z</time>
      </trkpt>
      <trkpt lon="26.233428861487" lat="68.758491117224">
        <ele>163.80000305176</ele>
        <time>2023-12-31T09:33:09Z</time>
      </trkpt>
      <trkpt lon="26.233422599945" lat="68.758491460326">
        <ele>163.80000305176</ele>
        <time>2023-12-31T09:33:10Z</time>
      </trkpt>
      <trkpt lon="26.233416338402" lat="68.758491803428">
        <ele>163.80000305176</ele>
        <time>2023-12-31T09:33:11Z</time>
      </trkpt>
      <trkpt lon="26.233410076859" lat="68.75849214653">
        <ele>163.80000305176</ele>
        <time>2023-12-31T09:33:12Z</time>
      </trkpt>
      <trkpt lon="26.233403815317" lat="68.758492489632">
        <ele>163.80000305176</ele>
        <time>2023-12-31T09:33:13Z</time>
      </trkpt>
      <trkpt lon="26.233397553774" lat="68.758492832734">
        <ele>163.80000305176</ele>
        <time>2023-12-31T09:33:14Z</time>
      </trkpt>
      <trkpt lon="26.233391292231" lat="68.758493175836">
        <ele>163.80000305176</ele>
        <time>2023-12-31T09:33:15Z</time>
      </trkpt>
      <trkpt lon="26.233385030688" lat="68.758493518938">
        <ele>163.80000305176</ele>
        <time>2023-12-31T09:33:16Z</time>
      </trkpt>
      <trkpt lon="26.233378769146" lat="68.75849386204">
        <ele>163.80000305176</ele>
        <time>2023-12-31T09:33:17Z</time>
      </trkpt>
      <trkpt lon="26.233372507603" lat="68.758494205142">
        <ele>163.80000305176</ele>
        <time>2023-12-31T09:33:18Z</time>
      </trkpt>
      <trkpt lon="26.23336624606" lat="68.758494548244">
        <ele>163.80000305176</ele>
        <time>2023-12-31T09:33:19Z</time>
      </trkpt>
      <trkpt lon="26.233359984518" lat="68.758494891346">
        <ele>163.80000305176</ele>
        <time>2023-12-31T09:33:20Z</time>
      </trkpt>
      <trkpt lon="26.233353722975" lat="68.758495234448">
        <ele>163.80000305176</ele>
        <time>2023-12-31T09:33:21Z</time>
      </trkpt>
      <trkpt lon="26.233347461432" lat="68.75849557755">
        <ele>163.80000305176</ele>
        <time>2023-12-31T09:33:22Z</time>
      </trkpt>
      <trkpt lon="26.233341199889" lat="68.758495920652">
        <ele>163.80000305176</ele>
        <time>2023-12-31T09:33:23Z</time>
      </trkpt>
      <trkpt lon="26.233334938347" lat="68.758496263754">
        <ele>163.80000305176</ele>
        <time>2023-12-31T09:33:24Z</time>
      </trkpt>
      <trkpt lon="26.233328676804" lat="68.758496606856">
        <ele>163.80000305176</ele>
        <time>2023-12-31T09:33:25Z</time>
      </trkpt>
      <trkpt lon="26.233322415261" lat="68.758496949958">
        <ele>163.80000305176</ele>
        <time>2023-12-31T09:33:26Z</time>
      </trkpt>
      <trkpt lon="26.233316153719" lat="68.75849729306">
        <ele>163.80000305176</ele>
        <time>2023-12-31T09:33:27Z</time>
      </trkpt>
      <trkpt lon="26.233309892176" lat="68.758497636163">
        <ele>163.80000305176</ele>
        <time>2023-12-31T09:33:28Z</time>
      </trkpt>
      <trkpt lon="26.233303630633" lat="68.758497979265">
        <ele>163.80000305176</ele>
        <time>2023-12-31T09:33:29Z</time>
      </trkpt>
      <trkpt lon="26.23329736909" lat="68.758498322367">
        <ele>163.80000305176</ele>
        <time>2023-12-31T09:33:30Z</time>
      </trkpt>
      <trkpt lon="26.233291107548" lat="68.758498665469">
        <ele>163.80000305176</ele>
        <time>2023-12-31T09:33:31Z</time>
      </trkpt>
      <trkpt lon="26.233284846005" lat="68.758499008571">
        <ele>163.80000305176</ele>
        <time>2023-12-31T09:33:32Z</time>
      </trkpt>
      <trkpt lon="26.233278584462" lat="68.758499351673">
        <ele>163.80000305176</ele>
        <time>2023-12-31T09:33:33Z</time>
      </trkpt>
      <trkpt lon="26.23327232292" lat="68.758499694775">
        <ele>163.80000305176</ele>
        <time>2023-12-31T09:33:34Z</time>
      </trkpt>
      <trkpt lon="26.233266061377" lat="68.758500037877">
        <ele>163.80000305176</ele>
        <time>2023-12-31T09:33:35Z</time>
      </trkpt>
      <trkpt lon="26.233259799834" lat="68.758500380979">
        <ele>163.80000305176</ele>
        <time>2023-12-31T09:33:36Z</time>
      </trkpt>
      <trkpt lon="26.233253538291" lat="68.758500724081">
        <ele>163.80000305176</ele>
        <time>2023-12-31T09:33:37Z</time>
      </trkpt>
      <trkpt lon="26.233247276749" lat="68.758501067183">
        <ele>163.80000305176</ele>
        <time>2023-12-31T09:33:38Z</time>
      </trkpt>
      <trkpt lon="26.233241015206" lat="68.758501410285">
        <ele>163.80000305176</ele>
        <time>2023-12-31T09:33:39Z</time>
      </trkpt>
      <trkpt lon="26.233234753663" lat="68.758501753387">
        <ele>163.80000305176</ele>
        <time>2023-12-31T09:33:40Z</time>
      </trkpt>
      <trkpt lon="26.233228492121" lat="68.758502096489">
        <ele>163.80000305176</ele>
        <time>2023-12-31T09:33:41Z</time>
      </trkpt>
      <trkpt lon="26.233222230578" lat="68.758502439591">
        <ele>163.80000305176</ele>
        <time>2023-12-31T09:33:42Z</time>
      </trkpt>
      <trkpt lon="26.233215969035" lat="68.758502782693">
        <ele>163.80000305176</ele>
        <time>2023-12-31T09:33:43Z</time>
      </trkpt>
      <trkpt lon="26.233209707492" lat="68.758503125795">
        <ele>163.80000305176</ele>
        <time>2023-12-31T09:33:44Z</time>
      </trkpt>
      <trkpt lon="26.23320344595" lat="68.758503468897">
        <ele>163.80000305176</ele>
        <time>2023-12-31T09:33:45Z</time>
      </trkpt>
      <trkpt lon="26.233197184407" lat="68.758503811999">
        <ele>163.80000305176</ele>
        <time>2023-12-31T09:33:46Z</time>
      </trkpt>
      <trkpt lon="26.233190922864" lat="68.758504155101">
        <ele>163.80000305176</ele>
        <time>2023-12-31T09:33:47Z</time>
      </trkpt>
      <trkpt lon="26.233184661322" lat="68.758504498203">
        <ele>163.80000305176</ele>
        <time>2023-12-31T09:33:48Z</time>
      </trkpt>
      <trkpt lon="26.233178399779" lat="68.758504841305">
        <ele>163.80000305176</ele>
        <time>2023-12-31T09:33:49Z</time>
      </trkpt>
      <trkpt lon="26.233172138236" lat="68.758505184407">
        <ele>163.80000305176</ele>
        <time>2023-12-31T09:33:50Z</time>
      </trkpt>
      <trkpt lon="26.233165876693" lat="68.758505527509">
        <ele>163.80000305176</ele>
        <time>2023-12-31T09:33:51Z</time>
      </trkpt>
      <trkpt lon="26.233159615151" lat="68.758505870611">
        <ele>163.80000305176</ele>
        <time>2023-12-31T09:33:52Z</time>
      </trkpt>
      <trkpt lon="26.233153353608" lat="68.758506213713">
        <ele>163.80000305176</ele>
        <time>2023-12-31T09:33:53Z</time>
      </trkpt>
      <trkpt lon="26.233147092065" lat="68.758506556815">
        <ele>163.80000305176</ele>
        <time>2023-12-31T09:33:54Z</time>
      </trkpt>
      <trkpt lon="26.233140830523" lat="68.758506899917">
        <ele>163.80000305176</ele>
        <time>2023-12-31T09:33:55Z</time>
      </trkpt>
      <trkpt lon="26.23313456898" lat="68.758507243019">
        <ele>163.80000305176</ele>
        <time>2023-12-31T09:33:56Z</time>
      </trkpt>
      <trkpt lon="26.233128307437" lat="68.758507586121">
        <ele>163.80000305176</ele>
        <time>2023-12-31T09:33:57Z</time>
      </trkpt>
      <trkpt lon="26.233122045894" lat="68.758507929223">
        <ele>163.80000305176</ele>
        <time>2023-12-31T09:33:58Z</time>
      </trkpt>
      <trkpt lon="26.233115784352" lat="68.758508272325">
        <ele>163.80000305176</ele>
        <time>2023-12-31T09:33:59Z</time>
      </trkpt>
      <trkpt lon="26.233109522809" lat="68.758508615427">
        <ele>163.80000305176</ele>
        <time>2023-12-31T09:34:00Z</time>
      </trkpt>
      <trkpt lon="26.233103261266" lat="68.758508958529">
        <ele>163.80000305176</ele>
        <time>2023-12-31T09:34:01Z</time>
      </trkpt>
      <trkpt lon="26.233096999723" lat="68.758509301631">
        <ele>163.80000305176</ele>
        <time>2023-12-31T09:34:02Z</time>
      </trkpt>
      <trkpt lon="26.233090738181" lat="68.758509644733">
        <ele>163.80000305176</ele>
        <time>2023-12-31T09:34:03Z</time>
      </trkpt>
      <trkpt lon="26.233084476638" lat="68.758509987835">
        <ele>163.80000305176</ele>
        <time>2023-12-31T09:34:04Z</time>
      </trkpt>
      <trkpt lon="26.233078215095" lat="68.758510330937">
        <ele>163.80000305176</ele>
        <time>2023-12-31T09:34:05Z</time>
      </trkpt>
      <trkpt lon="26.233071953553" lat="68.758510674039">
        <ele>163.80000305176</ele>
        <time>2023-12-31T09:34:06Z</time>
      </trkpt>
      <trkpt lon="26.23306569201" lat="68.758511017141">
        <ele>163.80000305176</ele>
        <time>2023-12-31T09:34:07Z</time>
      </trkpt>
      <trkpt lon="26.233059430467" lat="68.758511360243">
        <ele>163.80000305176</ele>
        <time>2023-12-31T09:34:08Z</time>
      </trkpt>
      <trkpt lon="26.233053168924" lat="68.758511703345">
        <ele>163.80000305176</ele>
        <time>2023-12-31T09:34:09Z</time>
      </trkpt>
      <trkpt lon="26.233046907382" lat="68.758512046447">
        <ele>163.80000305176</ele>
        <time>2023-12-31T09:34:10Z</time>
      </trkpt>
      <trkpt lon="26.233040645839" lat="68.758512389549">
        <ele>163.80000305176</ele>
        <time>2023-12-31T09:34:11Z</time>
      </trkpt>
      <trkpt lon="26.233034384296" lat="68.758512732651">
        <ele>163.80000305176</ele>
        <time>2023-12-31T09:34:12Z</time>
      </trkpt>
      <trkpt lon="26.233028122754" lat="68.758513075753">
        <ele>163.80000305176</ele>
        <time>2023-12-31T09:34:13Z</time>
      </trkpt>
      <trkpt lon="26.233021861211" lat="68.758513418855">
        <ele>163.80000305176</ele>
        <time>2023-12-31T09:34:14Z</time>
      </trkpt>
      <trkpt lon="26.233015599668" lat="68.758513761957">
        <ele>163.80000305176</ele>
        <time>2023-12-31T09:34:15Z</time>
      </trkpt>
      <trkpt lon="26.233009338125" lat="68.758514105059">
        <ele>163.80000305176</ele>
        <time>2023-12-31T09:34:16Z</time>
      </trkpt>
      <trkpt lon="26.233003076583" lat="68.758514448161">
        <ele>163.80000305176</ele>
        <time>2023-12-31T09:34:17Z</time>
      </trkpt>
      <trkpt lon="26.23299681504" lat="68.758514791263">
        <ele>163.80000305176</ele>
        <time>2023-12-31T09:34:18Z</time>
      </trkpt>
      <trkpt lon="26.232990553497" lat="68.758515134365">
        <ele>163.80000305176</ele>
        <time>2023-12-31T09:34:19Z</time>
      </trkpt>
      <trkpt lon="26.232984291955" lat="68.758515477467">
        <ele>163.80000305176</ele>
        <time>2023-12-31T09:34:20Z</time>
      </trkpt>
      <trkpt lon="26.232978030412" lat="68.758515820569">
        <ele>163.80000305176</ele>
        <time>2023-12-31T09:34:21Z</time>
      </trkpt>
      <trkpt lon="26.232971768869" lat="68.758516163671">
        <ele>163.80000305176</ele>
        <time>2023-12-31T09:34:22Z</time>
      </trkpt>
      <trkpt lon="26.232965507326" lat="68.758516506773">
        <ele>163.80000305176</ele>
        <time>2023-12-31T09:34:23Z</time>
      </trkpt>
      <trkpt lon="26.232959245784" lat="68.758516849875">
        <ele>163.80000305176</ele>
        <time>2023-12-31T09:34:24Z</time>
      </trkpt>
      <trkpt lon="26.232952984241" lat="68.758517192977">
        <ele>163.80000305176</ele>
        <time>2023-12-31T09:34:25Z</time>
      </trkpt>
      <trkpt lon="26.232946722698" lat="68.758517536079">
        <ele>163.80000305176</ele>
        <time>2023-12-31T09:34:26Z</time>
      </trkpt>
      <trkpt lon="26.232940461156" lat="68.758517879181">
        <ele>163.80000305176</ele>
        <time>2023-12-31T09:34:27Z</time>
      </trkpt>
      <trkpt lon="26.232934199613" lat="68.758518222283">
        <ele>163.80000305176</ele>
        <time>2023-12-31T09:34:28Z</time>
      </trkpt>
      <trkpt lon="26.23292793807" lat="68.758518565385">
        <ele>163.80000305176</ele>
        <time>2023-12-31T09:34:29Z</time>
      </trkpt>
      <trkpt lon="26.232921676527" lat="68.758518908488">
        <ele>163.80000305176</ele>
        <time>2023-12-31T09:34:30Z</time>
      </trkpt>
      <trkpt lon="26.232915414985" lat="68.75851925159">
        <ele>163.80000305176</ele>
        <time>2023-12-31T09:34:31Z</time>
      </trkpt>
      <trkpt lon="26.232909153442" lat="68.758519594692">
        <ele>163.80000305176</ele>
        <time>2023-12-31T09:34:32Z</time>
      </trkpt>
      <trkpt lon="26.232902891899" lat="68.758519937794">
        <ele>163.80000305176</ele>
        <time>2023-12-31T09:34:33Z</time>
      </trkpt>
      <trkpt lon="26.232896630357" lat="68.758520280896">
        <ele>163.80000305176</ele>
        <time>2023-12-31T09:34:34Z</time>
      </trkpt>
      <trkpt lon="26.232890368814" lat="68.758520623998">
        <ele>163.80000305176</ele>
        <time>2023-12-31T09:34:35Z</time>
      </trkpt>
      <trkpt lon="26.232884107271" lat="68.7585209671">
        <ele>163.80000305176</ele>
        <time>2023-12-31T09:34:36Z</time>
      </trkpt>
      <trkpt lon="26.232877845728" lat="68.758521310202">
        <ele>163.80000305176</ele>
        <time>2023-12-31T09:34:37Z</time>
      </trkpt>
      <trkpt lon="26.232871584186" lat="68.758521653304">
        <ele>163.80000305176</ele>
        <time>2023-12-31T09:34:38Z</time>
      </trkpt>
      <trkpt lon="26.232865322643" lat="68.758521996406">
        <ele>163.80000305176</ele>
        <time>2023-12-31T09:34:39Z</time>
      </trkpt>
      <trkpt lon="26.2328590611" lat="68.758522339508">
        <ele>163.80000305176</ele>
        <time>2023-12-31T09:34:40Z</time>
      </trkpt>
      <trkpt lon="26.232852799558" lat="68.75852268261">
        <ele>163.80000305176</ele>
        <time>2023-12-31T09:34:41Z</time>
      </trkpt>
      <trkpt lon="26.232846538015" lat="68.758523025712">
        <ele>163.80000305176</ele>
        <time>2023-12-31T09:34:42Z</time>
      </trkpt>
      <trkpt lon="26.232840276472" lat="68.758523368814">
        <ele>163.80000305176</ele>
        <time>2023-12-31T09:34:43Z</time>
      </trkpt>
      <trkpt lon="26.232834014929" lat="68.758523711916">
        <ele>163.80000305176</ele>
        <time>2023-12-31T09:34:44Z</time>
      </trkpt>
      <trkpt lon="26.232827753387" lat="68.758524055018">
        <ele>163.80000305176</ele>
        <time>2023-12-31T09:34:45Z</time>
      </trkpt>
      <trkpt lon="26.232821491844" lat="68.75852439812">
        <ele>163.80000305176</ele>
        <time>2023-12-31T09:34:46Z</time>
      </trkpt>
      <trkpt lon="26.232815230301" lat="68.758524741222">
        <ele>163.80000305176</ele>
        <time>2023-12-31T09:34:47Z</time>
      </trkpt>
      <trkpt lon="26.232808968759" lat="68.758525084324">
        <ele>163.80000305176</ele>
        <time>2023-12-31T09:34:48Z</time>
      </trkpt>
      <trkpt lon="26.232802707216" lat="68.758525427426">
        <ele>163.80000305176</ele>
        <time>2023-12-31T09:34:49Z</time>
      </trkpt>
      <trkpt lon="26.232796445673" lat="68.758525770528">
        <ele>163.80000305176</ele>
        <time>2023-12-31T09:34:50Z</time>
      </trkpt>
      <trkpt lon="26.23279018413" lat="68.75852611363">
        <ele>163.80000305176</ele>
        <time>2023-12-31T09:34:51Z</time>
      </trkpt>
      <trkpt lon="26.232783922588" lat="68.758526456732">
        <ele>163.80000305176</ele>
        <time>2023-12-31T09:34:52Z</time>
      </trkpt>
      <trkpt lon="26.232777661045" lat="68.758526799834">
        <ele>163.80000305176</ele>
        <time>2023-12-31T09:34:53Z</time>
      </trkpt>
      <trkpt lon="26.232771399502" lat="68.758527142936">
        <ele>163.80000305176</ele>
        <time>2023-12-31T09:34:54Z</time>
      </trkpt>
      <trkpt lon="26.23276513796" lat="68.758527486038">
        <ele>163.80000305176</ele>
        <time>2023-12-31T09:34:55Z</time>
      </trkpt>
      <trkpt lon="26.232758876417" lat="68.75852782914">
        <ele>163.80000305176</ele>
        <time>2023-12-31T09:34:56Z</time>
      </trkpt>
      <trkpt lon="26.232752614874" lat="68.758528172242">
        <ele>163.80000305176</ele>
        <time>2023-12-31T09:34:57Z</time>
      </trkpt>
      <trkpt lon="26.232746353331" lat="68.758528515344">
        <ele>163.80000305176</ele>
        <time>2023-12-31T09:34:58Z</time>
      </trkpt>
      <trkpt lon="26.232740091789" lat="68.758528858446">
        <ele>163.80000305176</ele>
        <time>2023-12-31T09:34:59Z</time>
      </trkpt>
      <trkpt lon="26.232733830246" lat="68.758529201548">
        <ele>163.80000305176</ele>
        <time>2023-12-31T09:35:00Z</time>
      </trkpt>
      <trkpt lon="26.232727568703" lat="68.75852954465">
        <ele>163.80000305176</ele>
        <time>2023-12-31T09:35:01Z</time>
      </trkpt>
      <trkpt lon="26.232721307161" lat="68.758529887752">
        <ele>163.80000305176</ele>
        <time>2023-12-31T09:35:02Z</time>
      </trkpt>
      <trkpt lon="26.232715045618" lat="68.758530230854">
        <ele>163.80000305176</ele>
        <time>2023-12-31T09:35:03Z</time>
      </trkpt>
      <trkpt lon="26.232708784075" lat="68.758530573956">
        <ele>163.80000305176</ele>
        <time>2023-12-31T09:35:04Z</time>
      </trkpt>
      <trkpt lon="26.232702522532" lat="68.758530917058">
        <ele>163.80000305176</ele>
        <time>2023-12-31T09:35:05Z</time>
      </trkpt>
      <trkpt lon="26.23269626099" lat="68.75853126016">
        <ele>163.80000305176</ele>
        <time>2023-12-31T09:35:06Z</time>
      </trkpt>
      <trkpt lon="26.232689999447" lat="68.758531603262">
        <ele>163.80000305176</ele>
        <time>2023-12-31T09:35:07Z</time>
      </trkpt>
      <trkpt lon="26.232683737904" lat="68.758531946364">
        <ele>163.80000305176</ele>
        <time>2023-12-31T09:35:08Z</time>
      </trkpt>
      <trkpt lon="26.232677476362" lat="68.758532289466">
        <ele>163.80000305176</ele>
        <time>2023-12-31T09:35:09Z</time>
      </trkpt>
      <trkpt lon="26.232671214819" lat="68.758532632568">
        <ele>163.80000305176</ele>
        <time>2023-12-31T09:35:10Z</time>
      </trkpt>
      <trkpt lon="26.232664953276" lat="68.75853297567">
        <ele>163.80000305176</ele>
        <time>2023-12-31T09:35:11Z</time>
      </trkpt>
      <trkpt lon="26.232658691733" lat="68.758533318772">
        <ele>163.80000305176</ele>
        <time>2023-12-31T09:35:12Z</time>
      </trkpt>
      <trkpt lon="26.232652430191" lat="68.758533661874">
        <ele>163.80000305176</ele>
        <time>2023-12-31T09:35:13Z</time>
      </trkpt>
      <trkpt lon="26.232646168648" lat="68.758534004976">
        <ele>163.80000305176</ele>
        <time>2023-12-31T09:35:14Z</time>
      </trkpt>
      <trkpt lon="26.232639907105" lat="68.758534348078">
        <ele>163.80000305176</ele>
        <time>2023-12-31T09:35:15Z</time>
      </trkpt>
      <trkpt lon="26.232633645563" lat="68.75853469118">
        <ele>163.80000305176</ele>
        <time>2023-12-31T09:35:16Z</time>
      </trkpt>
      <trkpt lon="26.23262738402" lat="68.758535034282">
        <ele>163.80000305176</ele>
        <time>2023-12-31T09:35:17Z</time>
      </trkpt>
      <trkpt lon="26.232621122477" lat="68.758535377384">
        <ele>163.80000305176</ele>
        <time>2023-12-31T09:35:18Z</time>
      </trkpt>
      <trkpt lon="26.232614860934" lat="68.758535720486">
        <ele>163.80000305176</ele>
        <time>2023-12-31T09:35:19Z</time>
      </trkpt>
      <trkpt lon="26.232608599392" lat="68.758536063588">
        <ele>163.80000305176</ele>
        <time>2023-12-31T09:35:20Z</time>
      </trkpt>
      <trkpt lon="26.232602337849" lat="68.75853640669">
        <ele>163.80000305176</ele>
        <time>2023-12-31T09:35:21Z</time>
      </trkpt>
      <trkpt lon="26.232596076306" lat="68.758536749792">
        <ele>163.80000305176</ele>
        <time>2023-12-31T09:35:22Z</time>
      </trkpt>
      <trkpt lon="26.232589814764" lat="68.758537092894">
        <ele>163.80000305176</ele>
        <time>2023-12-31T09:35:23Z</time>
      </trkpt>
      <trkpt lon="26.232583553221" lat="68.758537435996">
        <ele>163.80000305176</ele>
        <time>2023-12-31T09:35:24Z</time>
      </trkpt>
      <trkpt lon="26.232577291678" lat="68.758537779098">
        <ele>163.80000305176</ele>
        <time>2023-12-31T09:35:25Z</time>
      </trkpt>
      <trkpt lon="26.232571030135" lat="68.7585381222">
        <ele>163.80000305176</ele>
        <time>2023-12-31T09:35:26Z</time>
      </trkpt>
      <trkpt lon="26.232564768593" lat="68.758538465302">
        <ele>163.80000305176</ele>
        <time>2023-12-31T09:35:27Z</time>
      </trkpt>
      <trkpt lon="26.23255850705" lat="68.758538808404">
        <ele>163.80000305176</ele>
        <time>2023-12-31T09:35:28Z</time>
      </trkpt>
      <trkpt lon="26.232552245507" lat="68.758539151506">
        <ele>163.80000305176</ele>
        <time>2023-12-31T09:35:29Z</time>
      </trkpt>
      <trkpt lon="26.232545983965" lat="68.758539494608">
        <ele>163.80000305176</ele>
        <time>2023-12-31T09:35:30Z</time>
      </trkpt>
      <trkpt lon="26.232539722422" lat="68.75853983771">
        <ele>163.80000305176</ele>
        <time>2023-12-31T09:35:31Z</time>
      </trkpt>
      <trkpt lon="26.232533460879" lat="68.758540180813">
        <ele>163.80000305176</ele>
        <time>2023-12-31T09:35:32Z</time>
      </trkpt>
      <trkpt lon="26.232527199336" lat="68.758540523915">
        <ele>163.80000305176</ele>
        <time>2023-12-31T09:35:33Z</time>
      </trkpt>
      <trkpt lon="26.232520937794" lat="68.758540867017">
        <ele>163.80000305176</ele>
        <time>2023-12-31T09:35:34Z</time>
      </trkpt>
      <trkpt lon="26.232514676251" lat="68.758541210119">
        <ele>163.80000305176</ele>
        <time>2023-12-31T09:35:35Z</time>
      </trkpt>
      <trkpt lon="26.232508414708" lat="68.758541553221">
        <ele>163.80000305176</ele>
        <time>2023-12-31T09:35:36Z</time>
      </trkpt>
      <trkpt lon="26.232502153166" lat="68.758541896323">
        <ele>163.80000305176</ele>
        <time>2023-12-31T09:35:37Z</time>
      </trkpt>
      <trkpt lon="26.232495891623" lat="68.758542239425">
        <ele>163.80000305176</ele>
        <time>2023-12-31T09:35:38Z</time>
      </trkpt>
      <trkpt lon="26.23248963008" lat="68.758542582527">
        <ele>163.80000305176</ele>
        <time>2023-12-31T09:35:39Z</time>
      </trkpt>
      <trkpt lon="26.232483368537" lat="68.758542925629">
        <ele>163.80000305176</ele>
        <time>2023-12-31T09:35:40Z</time>
      </trkpt>
      <trkpt lon="26.232477106995" lat="68.758543268731">
        <ele>163.80000305176</ele>
        <time>2023-12-31T09:35:41Z</time>
      </trkpt>
      <trkpt lon="26.232470845452" lat="68.758543611833">
        <ele>163.80000305176</ele>
        <time>2023-12-31T09:35:42Z</time>
      </trkpt>
      <trkpt lon="26.232464583909" lat="68.758543954935">
        <ele>163.80000305176</ele>
        <time>2023-12-31T09:35:43Z</time>
      </trkpt>
      <trkpt lon="26.232458322367" lat="68.758544298037">
        <ele>163.80000305176</ele>
        <time>2023-12-31T09:35:44Z</time>
      </trkpt>
      <trkpt lon="26.232452060824" lat="68.758544641139">
        <ele>163.80000305176</ele>
        <time>2023-12-31T09:35:45Z</time>
      </trkpt>
      <trkpt lon="26.232445799281" lat="68.758544984241">
        <ele>163.80000305176</ele>
        <time>2023-12-31T09:35:46Z</time>
      </trkpt>
      <trkpt lon="26.232439537738" lat="68.758545327343">
        <ele>163.80000305176</ele>
        <time>2023-12-31T09:35:47Z</time>
      </trkpt>
      <trkpt lon="26.232433276196" lat="68.758545670445">
        <ele>163.80000305176</ele>
        <time>2023-12-31T09:35:48Z</time>
      </trkpt>
      <trkpt lon="26.232427014653" lat="68.758546013547">
        <ele>163.80000305176</ele>
        <time>2023-12-31T09:35:49Z</time>
      </trkpt>
      <trkpt lon="26.23242075311" lat="68.758546356649">
        <ele>163.80000305176</ele>
        <time>2023-12-31T09:35:50Z</time>
      </trkpt>
      <trkpt lon="26.232414491568" lat="68.758546699751">
        <ele>163.80000305176</ele>
        <time>2023-12-31T09:35:51Z</time>
      </trkpt>
      <trkpt lon="26.232408230025" lat="68.758547042853">
        <ele>163.80000305176</ele>
        <time>2023-12-31T09:35:52Z</time>
      </trkpt>
      <trkpt lon="26.232401968482" lat="68.758547385955">
        <ele>163.80000305176</ele>
        <time>2023-12-31T09:35:53Z</time>
      </trkpt>
      <trkpt lon="26.232395706939" lat="68.758547729057">
        <ele>163.80000305176</ele>
        <time>2023-12-31T09:35:54Z</time>
      </trkpt>
      <trkpt lon="26.232389445397" lat="68.758548072159">
        <ele>163.80000305176</ele>
        <time>2023-12-31T09:35:55Z</time>
      </trkpt>
      <trkpt lon="26.232383183854" lat="68.758548415261">
        <ele>163.80000305176</ele>
        <time>2023-12-31T09:35:56Z</time>
      </trkpt>
      <trkpt lon="26.232376922311" lat="68.758548758363">
        <ele>163.80000305176</ele>
        <time>2023-12-31T09:35:57Z</time>
      </trkpt>
      <trkpt lon="26.232370660769" lat="68.758549101465">
        <ele>163.80000305176</ele>
        <time>2023-12-31T09:35:58Z</time>
      </trkpt>
      <trkpt lon="26.232364399226" lat="68.758549444567">
        <ele>163.80000305176</ele>
        <time>2023-12-31T09:35:59Z</time>
      </trkpt>
      <trkpt lon="26.232358137683" lat="68.758549787669">
        <ele>163.80000305176</ele>
        <time>2023-12-31T09:36:00Z</time>
      </trkpt>
      <trkpt lon="26.23235187614" lat="68.758550130771">
        <ele>163.80000305176</ele>
        <time>2023-12-31T09:36:01Z</time>
      </trkpt>
      <trkpt lon="26.232345614598" lat="68.758550473873">
        <ele>163.80000305176</ele>
        <time>2023-12-31T09:36:02Z</time>
      </trkpt>
      <trkpt lon="26.232339353055" lat="68.758550816975">
        <ele>163.80000305176</ele>
        <time>2023-12-31T09:36:03Z</time>
      </trkpt>
      <trkpt lon="26.232333091512" lat="68.758551160077">
        <ele>163.80000305176</ele>
        <time>2023-12-31T09:36:04Z</time>
      </trkpt>
      <trkpt lon="26.232326829969" lat="68.758551503179">
        <ele>163.80000305176</ele>
        <time>2023-12-31T09:36:05Z</time>
      </trkpt>
      <trkpt lon="26.232320568427" lat="68.758551846281">
        <ele>163.80000305176</ele>
        <time>2023-12-31T09:36:06Z</time>
      </trkpt>
      <trkpt lon="26.232314306884" lat="68.758552189383">
        <ele>163.80000305176</ele>
        <time>2023-12-31T09:36:07Z</time>
      </trkpt>
      <trkpt lon="26.232308045341" lat="68.758552532485">
        <ele>163.80000305176</ele>
        <time>2023-12-31T09:36:08Z</time>
      </trkpt>
      <trkpt lon="26.232301783799" lat="68.758552875587">
        <ele>163.80000305176</ele>
        <time>2023-12-31T09:36:09Z</time>
      </trkpt>
      <trkpt lon="26.232295522256" lat="68.758553218689">
        <ele>163.80000305176</ele>
        <time>2023-12-31T09:36:10Z</time>
      </trkpt>
      <trkpt lon="26.232289260713" lat="68.758553561791">
        <ele>163.80000305176</ele>
        <time>2023-12-31T09:36:11Z</time>
      </trkpt>
      <trkpt lon="26.23228299917" lat="68.758553904893">
        <ele>163.80000305176</ele>
        <time>2023-12-31T09:36:12Z</time>
      </trkpt>
      <trkpt lon="26.232276737628" lat="68.758554247995">
        <ele>163.80000305176</ele>
        <time>2023-12-31T09:36:13Z</time>
      </trkpt>
      <trkpt lon="26.232270476085" lat="68.758554591097">
        <ele>163.80000305176</ele>
        <time>2023-12-31T09:36:14Z</time>
      </trkpt>
      <trkpt lon="26.232264214542" lat="68.758554934199">
        <ele>163.80000305176</ele>
        <time>2023-12-31T09:36:15Z</time>
      </trkpt>
      <trkpt lon="26.232257953" lat="68.758555277301">
        <ele>163.80000305176</ele>
        <time>2023-12-31T09:36:16Z</time>
      </trkpt>
      <trkpt lon="26.232251691457" lat="68.758555620403">
        <ele>163.80000305176</ele>
        <time>2023-12-31T09:36:17Z</time>
      </trkpt>
      <trkpt lon="26.232245429914" lat="68.758555963505">
        <ele>163.80000305176</ele>
        <time>2023-12-31T09:36:18Z</time>
      </trkpt>
      <trkpt lon="26.232239168371" lat="68.758556306607">
        <ele>163.80000305176</ele>
        <time>2023-12-31T09:36:19Z</time>
      </trkpt>
      <trkpt lon="26.232232906829" lat="68.758556649709">
        <ele>163.80000305176</ele>
        <time>2023-12-31T09:36:20Z</time>
      </trkpt>
      <trkpt lon="26.232226645286" lat="68.758556992811">
        <ele>163.80000305176</ele>
        <time>2023-12-31T09:36:21Z</time>
      </trkpt>
      <trkpt lon="26.232220383743" lat="68.758557335913">
        <ele>163.80000305176</ele>
        <time>2023-12-31T09:36:22Z</time>
      </trkpt>
      <trkpt lon="26.232214122201" lat="68.758557679015">
        <ele>163.80000305176</ele>
        <time>2023-12-31T09:36:23Z</time>
      </trkpt>
      <trkpt lon="26.232207860658" lat="68.758558022117">
        <ele>163.80000305176</ele>
        <time>2023-12-31T09:36:24Z</time>
      </trkpt>
      <trkpt lon="26.232201599115" lat="68.758558365219">
        <ele>163.80000305176</ele>
        <time>2023-12-31T09:36:25Z</time>
      </trkpt>
      <trkpt lon="26.232195337572" lat="68.758558708321">
        <ele>163.80000305176</ele>
        <time>2023-12-31T09:36:26Z</time>
      </trkpt>
      <trkpt lon="26.23218907603" lat="68.758559051423">
        <ele>163.80000305176</ele>
        <time>2023-12-31T09:36:27Z</time>
      </trkpt>
      <trkpt lon="26.232182814487" lat="68.758559394525">
        <ele>163.80000305176</ele>
        <time>2023-12-31T09:36:28Z</time>
      </trkpt>
      <trkpt lon="26.232176552944" lat="68.758559737627">
        <ele>163.80000305176</ele>
        <time>2023-12-31T09:36:29Z</time>
      </trkpt>
      <trkpt lon="26.232170291402" lat="68.758560080729">
        <ele>163.80000305176</ele>
        <time>2023-12-31T09:36:30Z</time>
      </trkpt>
      <trkpt lon="26.232164029859" lat="68.758560423831">
        <ele>163.80000305176</ele>
        <time>2023-12-31T09:36:31Z</time>
      </trkpt>
      <trkpt lon="26.232157768316" lat="68.758560766933">
        <ele>163.80000305176</ele>
        <time>2023-12-31T09:36:32Z</time>
      </trkpt>
      <trkpt lon="26.232151506773" lat="68.758561110035">
        <ele>163.80000305176</ele>
        <time>2023-12-31T09:36:33Z</time>
      </trkpt>
      <trkpt lon="26.232145245231" lat="68.758561453138">
        <ele>163.80000305176</ele>
        <time>2023-12-31T09:36:34Z</time>
      </trkpt>
      <trkpt lon="26.232138983688" lat="68.75856179624">
        <ele>163.80000305176</ele>
        <time>2023-12-31T09:36:35Z</time>
      </trkpt>
      <trkpt lon="26.232132722145" lat="68.758562139342">
        <ele>163.80000305176</ele>
        <time>2023-12-31T09:36:36Z</time>
      </trkpt>
      <trkpt lon="26.232126460603" lat="68.758562482444">
        <ele>163.80000305176</ele>
        <time>2023-12-31T09:36:37Z</time>
      </trkpt>
      <trkpt lon="26.23212019906" lat="68.758562825546">
        <ele>163.80000305176</ele>
        <time>2023-12-31T09:36:38Z</time>
      </trkpt>
      <trkpt lon="26.232113937517" lat="68.758563168648">
        <ele>163.80000305176</ele>
        <time>2023-12-31T09:36:39Z</time>
      </trkpt>
      <trkpt lon="26.232107675974" lat="68.75856351175">
        <ele>163.80000305176</ele>
        <time>2023-12-31T09:36:40Z</time>
      </trkpt>
      <trkpt lon="26.232101414432" lat="68.758563854852">
        <ele>163.80000305176</ele>
        <time>2023-12-31T09:36:41Z</time>
      </trkpt>
      <trkpt lon="26.232095152889" lat="68.758564197954">
        <ele>163.80000305176</ele>
        <time>2023-12-31T09:36:42Z</time>
      </trkpt>
      <trkpt lon="26.232088891346" lat="68.758564541056">
        <ele>163.80000305176</ele>
        <time>2023-12-31T09:36:43Z</time>
      </trkpt>
      <trkpt lon="26.232082629804" lat="68.758564884158">
        <ele>163.80000305176</ele>
        <time>2023-12-31T09:36:44Z</time>
      </trkpt>
      <trkpt lon="26.232076368261" lat="68.75856522726">
        <ele>163.80000305176</ele>
        <time>2023-12-31T09:36:45Z</time>
      </trkpt>
      <trkpt lon="26.232070106718" lat="68.758565570362">
        <ele>163.80000305176</ele>
        <time>2023-12-31T09:36:46Z</time>
      </trkpt>
      <trkpt lon="26.232063845175" lat="68.758565913464">
        <ele>163.80000305176</ele>
        <time>2023-12-31T09:36:47Z</time>
      </trkpt>
      <trkpt lon="26.232057583633" lat="68.758566256566">
        <ele>163.80000305176</ele>
        <time>2023-12-31T09:36:48Z</time>
      </trkpt>
      <trkpt lon="26.23205132209" lat="68.758566599668">
        <ele>163.80000305176</ele>
        <time>2023-12-31T09:36:49Z</time>
      </trkpt>
      <trkpt lon="26.232045060547" lat="68.75856694277">
        <ele>163.80000305176</ele>
        <time>2023-12-31T09:36:50Z</time>
      </trkpt>
      <trkpt lon="26.232038799005" lat="68.758567285872">
        <ele>163.80000305176</ele>
        <time>2023-12-31T09:36:51Z</time>
      </trkpt>
      <trkpt lon="26.232032537462" lat="68.758567628974">
        <ele>163.80000305176</ele>
        <time>2023-12-31T09:36:52Z</time>
      </trkpt>
      <trkpt lon="26.232026275919" lat="68.758567972076">
        <ele>163.80000305176</ele>
        <time>2023-12-31T09:36:53Z</time>
      </trkpt>
      <trkpt lon="26.232020014376" lat="68.758568315178">
        <ele>163.80000305176</ele>
        <time>2023-12-31T09:36:54Z</time>
      </trkpt>
      <trkpt lon="26.232013752834" lat="68.75856865828">
        <ele>163.80000305176</ele>
        <time>2023-12-31T09:36:55Z</time>
      </trkpt>
      <trkpt lon="26.232007491291" lat="68.758569001382">
        <ele>163.80000305176</ele>
        <time>2023-12-31T09:36:56Z</time>
      </trkpt>
      <trkpt lon="26.232001229748" lat="68.758569344484">
        <ele>163.80000305176</ele>
        <time>2023-12-31T09:36:57Z</time>
      </trkpt>
      <trkpt lon="26.231994968206" lat="68.758569687586">
        <ele>163.80000305176</ele>
        <time>2023-12-31T09:36:58Z</time>
      </trkpt>
      <trkpt lon="26.231988706663" lat="68.758570030688">
        <ele>163.80000305176</ele>
        <time>2023-12-31T09:36:59Z</time>
      </trkpt>
      <trkpt lon="26.23198244512" lat="68.75857037379">
        <ele>163.80000305176</ele>
        <time>2023-12-31T09:37:00Z</time>
      </trkpt>
      <trkpt lon="26.231976183577" lat="68.758570716892">
        <ele>163.80000305176</ele>
        <time>2023-12-31T09:37:01Z</time>
      </trkpt>
      <trkpt lon="26.231969922035" lat="68.758571059994">
        <ele>163.80000305176</ele>
        <time>2023-12-31T09:37:02Z</time>
      </trkpt>
      <trkpt lon="26.231963660492" lat="68.758571403096">
        <ele>163.80000305176</ele>
        <time>2023-12-31T09:37:03Z</time>
      </trkpt>
      <trkpt lon="26.231957398949" lat="68.758571746198">
        <ele>163.80000305176</ele>
        <time>2023-12-31T09:37:04Z</time>
      </trkpt>
      <trkpt lon="26.231951137407" lat="68.7585720893">
        <ele>163.80000305176</ele>
        <time>2023-12-31T09:37:05Z</time>
      </trkpt>
      <trkpt lon="26.231944875864" lat="68.758572432402">
        <ele>163.80000305176</ele>
        <time>2023-12-31T09:37:06Z</time>
      </trkpt>
      <trkpt lon="26.231938614321" lat="68.758572775504">
        <ele>163.80000305176</ele>
        <time>2023-12-31T09:37:07Z</time>
      </trkpt>
      <trkpt lon="26.231932352778" lat="68.758573118606">
        <ele>163.80000305176</ele>
        <time>2023-12-31T09:37:08Z</time>
      </trkpt>
      <trkpt lon="26.231926091236" lat="68.758573461708">
        <ele>163.80000305176</ele>
        <time>2023-12-31T09:37:09Z</time>
      </trkpt>
      <trkpt lon="26.231919829693" lat="68.75857380481">
        <ele>163.80000305176</ele>
        <time>2023-12-31T09:37:10Z</time>
      </trkpt>
      <trkpt lon="26.23191356815" lat="68.758574147912">
        <ele>163.80000305176</ele>
        <time>2023-12-31T09:37:11Z</time>
      </trkpt>
      <trkpt lon="26.231907306608" lat="68.758574491014">
        <ele>163.80000305176</ele>
        <time>2023-12-31T09:37:12Z</time>
      </trkpt>
      <trkpt lon="26.231901045065" lat="68.758574834116">
        <ele>163.80000305176</ele>
        <time>2023-12-31T09:37:13Z</time>
      </trkpt>
      <trkpt lon="26.231894783522" lat="68.758575177218">
        <ele>163.80000305176</ele>
        <time>2023-12-31T09:37:14Z</time>
      </trkpt>
      <trkpt lon="26.231888521979" lat="68.75857552032">
        <ele>163.80000305176</ele>
        <time>2023-12-31T09:37:15Z</time>
      </trkpt>
      <trkpt lon="26.231882260437" lat="68.758575863422">
        <ele>163.80000305176</ele>
        <time>2023-12-31T09:37:16Z</time>
      </trkpt>
      <trkpt lon="26.231875998894" lat="68.758576206524">
        <ele>163.80000305176</ele>
        <time>2023-12-31T09:37:17Z</time>
      </trkpt>
      <trkpt lon="26.231869737351" lat="68.758576549626">
        <ele>163.80000305176</ele>
        <time>2023-12-31T09:37:18Z</time>
      </trkpt>
      <trkpt lon="26.231863475809" lat="68.758576892728">
        <ele>163.80000305176</ele>
        <time>2023-12-31T09:37:19Z</time>
      </trkpt>
      <trkpt lon="26.231857214266" lat="68.75857723583">
        <ele>163.80000305176</ele>
        <time>2023-12-31T09:37:20Z</time>
      </trkpt>
      <trkpt lon="26.231850952723" lat="68.758577578932">
        <ele>163.80000305176</ele>
        <time>2023-12-31T09:37:21Z</time>
      </trkpt>
      <trkpt lon="26.23184469118" lat="68.758577922034">
        <ele>163.80000305176</ele>
        <time>2023-12-31T09:37:22Z</time>
      </trkpt>
      <trkpt lon="26.231838429638" lat="68.758578265136">
        <ele>163.80000305176</ele>
        <time>2023-12-31T09:37:23Z</time>
      </trkpt>
      <trkpt lon="26.231832168095" lat="68.758578608238">
        <ele>163.80000305176</ele>
        <time>2023-12-31T09:37:24Z</time>
      </trkpt>
      <trkpt lon="26.231825906552" lat="68.75857895134">
        <ele>163.80000305176</ele>
        <time>2023-12-31T09:37:25Z</time>
      </trkpt>
      <trkpt lon="26.23181964501" lat="68.758579294442">
        <ele>163.80000305176</ele>
        <time>2023-12-31T09:37:26Z</time>
      </trkpt>
      <trkpt lon="26.231813383467" lat="68.758579637544">
        <ele>163.80000305176</ele>
        <time>2023-12-31T09:37:27Z</time>
      </trkpt>
      <trkpt lon="26.231807121924" lat="68.758579980646">
        <ele>163.80000305176</ele>
        <time>2023-12-31T09:37:28Z</time>
      </trkpt>
      <trkpt lon="26.231800860381" lat="68.758580323748">
        <ele>163.80000305176</ele>
        <time>2023-12-31T09:37:29Z</time>
      </trkpt>
      <trkpt lon="26.231794598839" lat="68.75858066685">
        <ele>163.80000305176</ele>
        <time>2023-12-31T09:37:30Z</time>
      </trkpt>
      <trkpt lon="26.231788337296" lat="68.758581009952">
        <ele>163.80000305176</ele>
        <time>2023-12-31T09:37:31Z</time>
      </trkpt>
      <trkpt lon="26.231782075753" lat="68.758581353054">
        <ele>163.80000305176</ele>
        <time>2023-12-31T09:37:32Z</time>
      </trkpt>
      <trkpt lon="26.231775814211" lat="68.758581696156">
        <ele>163.80000305176</ele>
        <time>2023-12-31T09:37:33Z</time>
      </trkpt>
      <trkpt lon="26.231769552668" lat="68.758582039258">
        <ele>163.80000305176</ele>
        <time>2023-12-31T09:37:34Z</time>
      </trkpt>
      <trkpt lon="26.231763291125" lat="68.75858238236">
        <ele>163.80000305176</ele>
        <time>2023-12-31T09:37:35Z</time>
      </trkpt>
      <trkpt lon="26.231757029582" lat="68.758582725463">
        <ele>163.80000305176</ele>
        <time>2023-12-31T09:37:36Z</time>
      </trkpt>
      <trkpt lon="26.23175076804" lat="68.758583068565">
        <ele>163.80000305176</ele>
        <time>2023-12-31T09:37:37Z</time>
      </trkpt>
      <trkpt lon="26.231744506497" lat="68.758583411667">
        <ele>163.80000305176</ele>
        <time>2023-12-31T09:37:38Z</time>
      </trkpt>
      <trkpt lon="26.231738244954" lat="68.758583754769">
        <ele>163.80000305176</ele>
        <time>2023-12-31T09:37:39Z</time>
      </trkpt>
      <trkpt lon="26.231731983412" lat="68.758584097871">
        <ele>163.80000305176</ele>
        <time>2023-12-31T09:37:40Z</time>
      </trkpt>
      <trkpt lon="26.231725721869" lat="68.758584440973">
        <ele>163.80000305176</ele>
        <time>2023-12-31T09:37:41Z</time>
      </trkpt>
      <trkpt lon="26.231719460326" lat="68.758584784075">
        <ele>163.80000305176</ele>
        <time>2023-12-31T09:37:42Z</time>
      </trkpt>
      <trkpt lon="26.231713198783" lat="68.758585127177">
        <ele>163.80000305176</ele>
        <time>2023-12-31T09:37:43Z</time>
      </trkpt>
      <trkpt lon="26.231706937241" lat="68.758585470279">
        <ele>163.80000305176</ele>
        <time>2023-12-31T09:37:44Z</time>
      </trkpt>
      <trkpt lon="26.231700675698" lat="68.758585813381">
        <ele>163.80000305176</ele>
        <time>2023-12-31T09:37:45Z</time>
      </trkpt>
      <trkpt lon="26.231694414155" lat="68.758586156483">
        <ele>163.80000305176</ele>
        <time>2023-12-31T09:37:46Z</time>
      </trkpt>
      <trkpt lon="26.231688152613" lat="68.758586499585">
        <ele>163.80000305176</ele>
        <time>2023-12-31T09:37:47Z</time>
      </trkpt>
      <trkpt lon="26.23168189107" lat="68.758586842687">
        <ele>163.80000305176</ele>
        <time>2023-12-31T09:37:48Z</time>
      </trkpt>
      <trkpt lon="26.231675629527" lat="68.758587185789">
        <ele>163.80000305176</ele>
        <time>2023-12-31T09:37:49Z</time>
      </trkpt>
      <trkpt lon="26.231669367984" lat="68.758587528891">
        <ele>163.80000305176</ele>
        <time>2023-12-31T09:37:50Z</time>
      </trkpt>
      <trkpt lon="26.231663106442" lat="68.758587871993">
        <ele>163.80000305176</ele>
        <time>2023-12-31T09:37:51Z</time>
      </trkpt>
      <trkpt lon="26.231656844899" lat="68.758588215095">
        <ele>163.80000305176</ele>
        <time>2023-12-31T09:37:52Z</time>
      </trkpt>
      <trkpt lon="26.231650583356" lat="68.758588558197">
        <ele>163.80000305176</ele>
        <time>2023-12-31T09:37:53Z</time>
      </trkpt>
      <trkpt lon="26.231644321814" lat="68.758588901299">
        <ele>163.80000305176</ele>
        <time>2023-12-31T09:37:54Z</time>
      </trkpt>
      <trkpt lon="26.231638060271" lat="68.758589244401">
        <ele>163.80000305176</ele>
        <time>2023-12-31T09:37:55Z</time>
      </trkpt>
      <trkpt lon="26.231631798728" lat="68.758589587503">
        <ele>163.80000305176</ele>
        <time>2023-12-31T09:37:56Z</time>
      </trkpt>
      <trkpt lon="26.231625537185" lat="68.758589930605">
        <ele>163.80000305176</ele>
        <time>2023-12-31T09:37:57Z</time>
      </trkpt>
      <trkpt lon="26.231619275643" lat="68.758590273707">
        <ele>163.80000305176</ele>
        <time>2023-12-31T09:37:58Z</time>
      </trkpt>
      <trkpt lon="26.2316130141" lat="68.758590616809">
        <ele>163.80000305176</ele>
        <time>2023-12-31T09:37:59Z</time>
      </trkpt>
      <trkpt lon="26.231606752557" lat="68.758590959911">
        <ele>163.80000305176</ele>
        <time>2023-12-31T09:38:00Z</time>
      </trkpt>
      <trkpt lon="26.231600491015" lat="68.758591303013">
        <ele>163.80000305176</ele>
        <time>2023-12-31T09:38:01Z</time>
      </trkpt>
      <trkpt lon="26.231594229472" lat="68.758591646115">
        <ele>163.80000305176</ele>
        <time>2023-12-31T09:38:02Z</time>
      </trkpt>
      <trkpt lon="26.231587967929" lat="68.758591989217">
        <ele>163.80000305176</ele>
        <time>2023-12-31T09:38:03Z</time>
      </trkpt>
      <trkpt lon="26.231581706386" lat="68.758592332319">
        <ele>163.80000305176</ele>
        <time>2023-12-31T09:38:04Z</time>
      </trkpt>
      <trkpt lon="26.231575444844" lat="68.758592675421">
        <ele>163.80000305176</ele>
        <time>2023-12-31T09:38:05Z</time>
      </trkpt>
      <trkpt lon="26.231569183301" lat="68.758593018523">
        <ele>163.80000305176</ele>
        <time>2023-12-31T09:38:06Z</time>
      </trkpt>
      <trkpt lon="26.231562921758" lat="68.758593361625">
        <ele>163.80000305176</ele>
        <time>2023-12-31T09:38:07Z</time>
      </trkpt>
      <trkpt lon="26.231556660215" lat="68.758593704727">
        <ele>163.80000305176</ele>
        <time>2023-12-31T09:38:08Z</time>
      </trkpt>
      <trkpt lon="26.231550398673" lat="68.758594047829">
        <ele>163.80000305176</ele>
        <time>2023-12-31T09:38:09Z</time>
      </trkpt>
      <trkpt lon="26.23154413713" lat="68.758594390931">
        <ele>163.80000305176</ele>
        <time>2023-12-31T09:38:10Z</time>
      </trkpt>
      <trkpt lon="26.231537875587" lat="68.758594734033">
        <ele>163.80000305176</ele>
        <time>2023-12-31T09:38:11Z</time>
      </trkpt>
      <trkpt lon="26.231531614045" lat="68.758595077135">
        <ele>163.80000305176</ele>
        <time>2023-12-31T09:38:12Z</time>
      </trkpt>
      <trkpt lon="26.231525352502" lat="68.758595420237">
        <ele>163.80000305176</ele>
        <time>2023-12-31T09:38:13Z</time>
      </trkpt>
      <trkpt lon="26.231519090959" lat="68.758595763339">
        <ele>163.80000305176</ele>
        <time>2023-12-31T09:38:14Z</time>
      </trkpt>
      <trkpt lon="26.231512829416" lat="68.758596106441">
        <ele>163.80000305176</ele>
        <time>2023-12-31T09:38:15Z</time>
      </trkpt>
      <trkpt lon="26.231506567874" lat="68.758596449543">
        <ele>163.80000305176</ele>
        <time>2023-12-31T09:38:16Z</time>
      </trkpt>
      <trkpt lon="26.231500306331" lat="68.758596792645">
        <ele>163.80000305176</ele>
        <time>2023-12-31T09:38:17Z</time>
      </trkpt>
      <trkpt lon="26.231494044788" lat="68.758597135747">
        <ele>163.80000305176</ele>
        <time>2023-12-31T09:38:18Z</time>
      </trkpt>
      <trkpt lon="26.231487783246" lat="68.758597478849">
        <ele>163.80000305176</ele>
        <time>2023-12-31T09:38:19Z</time>
      </trkpt>
      <trkpt lon="26.231481521703" lat="68.758597821951">
        <ele>163.80000305176</ele>
        <time>2023-12-31T09:38:20Z</time>
      </trkpt>
      <trkpt lon="26.23147526016" lat="68.758598165053">
        <ele>163.80000305176</ele>
        <time>2023-12-31T09:38:21Z</time>
      </trkpt>
      <trkpt lon="26.231468998617" lat="68.758598508155">
        <ele>163.80000305176</ele>
        <time>2023-12-31T09:38:22Z</time>
      </trkpt>
      <trkpt lon="26.231462737075" lat="68.758598851257">
        <ele>163.80000305176</ele>
        <time>2023-12-31T09:38:23Z</time>
      </trkpt>
      <trkpt lon="26.231456475532" lat="68.758599194359">
        <ele>163.80000305176</ele>
        <time>2023-12-31T09:38:24Z</time>
      </trkpt>
      <trkpt lon="26.231450213989" lat="68.758599537461">
        <ele>163.80000305176</ele>
        <time>2023-12-31T09:38:25Z</time>
      </trkpt>
      <trkpt lon="26.231443952447" lat="68.758599880563">
        <ele>163.80000305176</ele>
        <time>2023-12-31T09:38:26Z</time>
      </trkpt>
      <trkpt lon="26.231437690904" lat="68.758600223665">
        <ele>163.80000305176</ele>
        <time>2023-12-31T09:38:27Z</time>
      </trkpt>
      <trkpt lon="26.231431429361" lat="68.758600566767">
        <ele>163.80000305176</ele>
        <time>2023-12-31T09:38:28Z</time>
      </trkpt>
      <trkpt lon="26.231425167818" lat="68.758600909869">
        <ele>163.80000305176</ele>
        <time>2023-12-31T09:38:29Z</time>
      </trkpt>
      <trkpt lon="26.231418906276" lat="68.758601252971">
        <ele>163.80000305176</ele>
        <time>2023-12-31T09:38:30Z</time>
      </trkpt>
      <trkpt lon="26.231412644733" lat="68.758601596073">
        <ele>163.80000305176</ele>
        <time>2023-12-31T09:38:31Z</time>
      </trkpt>
      <trkpt lon="26.23140638319" lat="68.758601939175">
        <ele>163.80000305176</ele>
        <time>2023-12-31T09:38:32Z</time>
      </trkpt>
      <trkpt lon="26.231400121648" lat="68.758602282277">
        <ele>163.80000305176</ele>
        <time>2023-12-31T09:38:33Z</time>
      </trkpt>
      <trkpt lon="26.231393860105" lat="68.758602625379">
        <ele>163.80000305176</ele>
        <time>2023-12-31T09:38:34Z</time>
      </trkpt>
      <trkpt lon="26.231387598562" lat="68.758602968481">
        <ele>163.80000305176</ele>
        <time>2023-12-31T09:38:35Z</time>
      </trkpt>
      <trkpt lon="26.231381337019" lat="68.758603311583">
        <ele>163.80000305176</ele>
        <time>2023-12-31T09:38:36Z</time>
      </trkpt>
      <trkpt lon="26.231375075477" lat="68.758603654685">
        <ele>163.80000305176</ele>
        <time>2023-12-31T09:38:37Z</time>
      </trkpt>
      <trkpt lon="26.231368813934" lat="68.758603997788">
        <ele>163.80000305176</ele>
        <time>2023-12-31T09:38:38Z</time>
      </trkpt>
      <trkpt lon="26.231362552391" lat="68.75860434089">
        <ele>163.80000305176</ele>
        <time>2023-12-31T09:38:39Z</time>
      </trkpt>
      <trkpt lon="26.231356290849" lat="68.758604683992">
        <ele>163.80000305176</ele>
        <time>2023-12-31T09:38:40Z</time>
      </trkpt>
      <trkpt lon="26.231350029306" lat="68.758605027094">
        <ele>163.80000305176</ele>
        <time>2023-12-31T09:38:41Z</time>
      </trkpt>
      <trkpt lon="26.231343767763" lat="68.758605370196">
        <ele>163.80000305176</ele>
        <time>2023-12-31T09:38:42Z</time>
      </trkpt>
      <trkpt lon="26.23133750622" lat="68.758605713298">
        <ele>163.80000305176</ele>
        <time>2023-12-31T09:38:43Z</time>
      </trkpt>
      <trkpt lon="26.231331244678" lat="68.7586060564">
        <ele>163.80000305176</ele>
        <time>2023-12-31T09:38:44Z</time>
      </trkpt>
      <trkpt lon="26.231324983135" lat="68.758606399502">
        <ele>163.80000305176</ele>
        <time>2023-12-31T09:38:45Z</time>
      </trkpt>
      <trkpt lon="26.231318721592" lat="68.758606742604">
        <ele>163.80000305176</ele>
        <time>2023-12-31T09:38:46Z</time>
      </trkpt>
      <trkpt lon="26.23131246005" lat="68.758607085706">
        <ele>163.80000305176</ele>
        <time>2023-12-31T09:38:47Z</time>
      </trkpt>
      <trkpt lon="26.231306198507" lat="68.758607428808">
        <ele>163.80000305176</ele>
        <time>2023-12-31T09:38:48Z</time>
      </trkpt>
      <trkpt lon="26.231299936964" lat="68.75860777191">
        <ele>163.80000305176</ele>
        <time>2023-12-31T09:38:49Z</time>
      </trkpt>
      <trkpt lon="26.231293675421" lat="68.758608115012">
        <ele>163.80000305176</ele>
        <time>2023-12-31T09:38:50Z</time>
      </trkpt>
      <trkpt lon="26.231287413879" lat="68.758608458114">
        <ele>163.80000305176</ele>
        <time>2023-12-31T09:38:51Z</time>
      </trkpt>
      <trkpt lon="26.231281152336" lat="68.758608801216">
        <ele>163.80000305176</ele>
        <time>2023-12-31T09:38:52Z</time>
      </trkpt>
      <trkpt lon="26.231274890793" lat="68.758609144318">
        <ele>163.80000305176</ele>
        <time>2023-12-31T09:38:53Z</time>
      </trkpt>
      <trkpt lon="26.231268629251" lat="68.75860948742">
        <ele>163.80000305176</ele>
        <time>2023-12-31T09:38:54Z</time>
      </trkpt>
      <trkpt lon="26.231262367708" lat="68.758609830522">
        <ele>163.80000305176</ele>
        <time>2023-12-31T09:38:55Z</time>
      </trkpt>
      <trkpt lon="26.231256106165" lat="68.758610173624">
        <ele>163.80000305176</ele>
        <time>2023-12-31T09:38:56Z</time>
      </trkpt>
      <trkpt lon="26.231249844622" lat="68.758610516726">
        <ele>163.80000305176</ele>
        <time>2023-12-31T09:38:57Z</time>
      </trkpt>
      <trkpt lon="26.23124358308" lat="68.758610859828">
        <ele>163.80000305176</ele>
        <time>2023-12-31T09:38:58Z</time>
      </trkpt>
      <trkpt lon="26.231237321537" lat="68.75861120293">
        <ele>163.80000305176</ele>
        <time>2023-12-31T09:38:59Z</time>
      </trkpt>
      <trkpt lon="26.231231059994" lat="68.758611546032">
        <ele>163.80000305176</ele>
        <time>2023-12-31T09:39:00Z</time>
      </trkpt>
      <trkpt lon="26.231224798452" lat="68.758611889134">
        <ele>163.80000305176</ele>
        <time>2023-12-31T09:39:01Z</time>
      </trkpt>
      <trkpt lon="26.231218536909" lat="68.758612232236">
        <ele>163.80000305176</ele>
        <time>2023-12-31T09:39:02Z</time>
      </trkpt>
      <trkpt lon="26.231212275366" lat="68.758612575338">
        <ele>163.80000305176</ele>
        <time>2023-12-31T09:39:03Z</time>
      </trkpt>
      <trkpt lon="26.231206013823" lat="68.75861291844">
        <ele>163.80000305176</ele>
        <time>2023-12-31T09:39:04Z</time>
      </trkpt>
      <trkpt lon="26.231199752281" lat="68.758613261542">
        <ele>163.80000305176</ele>
        <time>2023-12-31T09:39:05Z</time>
      </trkpt>
      <trkpt lon="26.231193490738" lat="68.758613604644">
        <ele>163.80000305176</ele>
        <time>2023-12-31T09:39:06Z</time>
      </trkpt>
      <trkpt lon="26.231187229195" lat="68.758613947746">
        <ele>163.80000305176</ele>
        <time>2023-12-31T09:39:07Z</time>
      </trkpt>
      <trkpt lon="26.231180967653" lat="68.758614290848">
        <ele>163.80000305176</ele>
        <time>2023-12-31T09:39:08Z</time>
      </trkpt>
      <trkpt lon="26.23117470611" lat="68.75861463395">
        <ele>163.80000305176</ele>
        <time>2023-12-31T09:39:09Z</time>
      </trkpt>
      <trkpt lon="26.231168444567" lat="68.758614977052">
        <ele>163.80000305176</ele>
        <time>2023-12-31T09:39:10Z</time>
      </trkpt>
      <trkpt lon="26.231162183024" lat="68.758615320154">
        <ele>163.80000305176</ele>
        <time>2023-12-31T09:39:11Z</time>
      </trkpt>
      <trkpt lon="26.231155921482" lat="68.758615663256">
        <ele>163.80000305176</ele>
        <time>2023-12-31T09:39:12Z</time>
      </trkpt>
      <trkpt lon="26.231149659939" lat="68.758616006358">
        <ele>163.80000305176</ele>
        <time>2023-12-31T09:39:13Z</time>
      </trkpt>
      <trkpt lon="26.231143398396" lat="68.75861634946">
        <ele>163.80000305176</ele>
        <time>2023-12-31T09:39:14Z</time>
      </trkpt>
      <trkpt lon="26.231137136854" lat="68.758616692562">
        <ele>163.80000305176</ele>
        <time>2023-12-31T09:39:15Z</time>
      </trkpt>
      <trkpt lon="26.231130875311" lat="68.758617035664">
        <ele>163.80000305176</ele>
        <time>2023-12-31T09:39:16Z</time>
      </trkpt>
      <trkpt lon="26.231124613768" lat="68.758617378766">
        <ele>163.80000305176</ele>
        <time>2023-12-31T09:39:17Z</time>
      </trkpt>
      <trkpt lon="26.231118352225" lat="68.758617721868">
        <ele>163.80000305176</ele>
        <time>2023-12-31T09:39:18Z</time>
      </trkpt>
      <trkpt lon="26.231112090683" lat="68.75861806497">
        <ele>163.80000305176</ele>
        <time>2023-12-31T09:39:19Z</time>
      </trkpt>
      <trkpt lon="26.23110582914" lat="68.758618408072">
        <ele>163.80000305176</ele>
        <time>2023-12-31T09:39:20Z</time>
      </trkpt>
      <trkpt lon="26.231099567597" lat="68.758618751174">
        <ele>163.80000305176</ele>
        <time>2023-12-31T09:39:21Z</time>
      </trkpt>
      <trkpt lon="26.231093306055" lat="68.758619094276">
        <ele>163.80000305176</ele>
        <time>2023-12-31T09:39:22Z</time>
      </trkpt>
      <trkpt lon="26.231087044512" lat="68.758619437378">
        <ele>163.80000305176</ele>
        <time>2023-12-31T09:39:23Z</time>
      </trkpt>
      <trkpt lon="26.231080782969" lat="68.75861978048">
        <ele>163.80000305176</ele>
        <time>2023-12-31T09:39:24Z</time>
      </trkpt>
      <trkpt lon="26.231074521426" lat="68.758620123582">
        <ele>163.80000305176</ele>
        <time>2023-12-31T09:39:25Z</time>
      </trkpt>
      <trkpt lon="26.231068259884" lat="68.758620466684">
        <ele>163.80000305176</ele>
        <time>2023-12-31T09:39:26Z</time>
      </trkpt>
      <trkpt lon="26.231061998341" lat="68.758620809786">
        <ele>163.80000305176</ele>
        <time>2023-12-31T09:39:27Z</time>
      </trkpt>
      <trkpt lon="26.231055736798" lat="68.758621152888">
        <ele>163.80000305176</ele>
        <time>2023-12-31T09:39:28Z</time>
      </trkpt>
      <trkpt lon="26.231049475256" lat="68.75862149599">
        <ele>163.80000305176</ele>
        <time>2023-12-31T09:39:29Z</time>
      </trkpt>
      <trkpt lon="26.231043213713" lat="68.758621839092">
        <ele>163.80000305176</ele>
        <time>2023-12-31T09:39:30Z</time>
      </trkpt>
      <trkpt lon="26.23103695217" lat="68.758622182194">
        <ele>163.80000305176</ele>
        <time>2023-12-31T09:39:31Z</time>
      </trkpt>
      <trkpt lon="26.231030690627" lat="68.758622525296">
        <ele>163.80000305176</ele>
        <time>2023-12-31T09:39:32Z</time>
      </trkpt>
      <trkpt lon="26.231024429085" lat="68.758622868398">
        <ele>163.80000305176</ele>
        <time>2023-12-31T09:39:33Z</time>
      </trkpt>
      <trkpt lon="26.231018167542" lat="68.7586232115">
        <ele>163.80000305176</ele>
        <time>2023-12-31T09:39:34Z</time>
      </trkpt>
      <trkpt lon="26.231011905999" lat="68.758623554602">
        <ele>163.80000305176</ele>
        <time>2023-12-31T09:39:35Z</time>
      </trkpt>
      <trkpt lon="26.231005644457" lat="68.758623897704">
        <ele>163.80000305176</ele>
        <time>2023-12-31T09:39:36Z</time>
      </trkpt>
      <trkpt lon="26.230999382914" lat="68.758624240806">
        <ele>163.80000305176</ele>
        <time>2023-12-31T09:39:37Z</time>
      </trkpt>
      <trkpt lon="26.230993121371" lat="68.758624583908">
        <ele>163.80000305176</ele>
        <time>2023-12-31T09:39:38Z</time>
      </trkpt>
      <trkpt lon="26.230986859828" lat="68.75862492701">
        <ele>163.80000305176</ele>
        <time>2023-12-31T09:39:39Z</time>
      </trkpt>
      <trkpt lon="26.230980598286" lat="68.758625270113">
        <ele>163.80000305176</ele>
        <time>2023-12-31T09:39:40Z</time>
      </trkpt>
      <trkpt lon="26.230974336743" lat="68.758625613215">
        <ele>163.80000305176</ele>
        <time>2023-12-31T09:39:41Z</time>
      </trkpt>
      <trkpt lon="26.2309680752" lat="68.758625956317">
        <ele>163.80000305176</ele>
        <time>2023-12-31T09:39:42Z</time>
      </trkpt>
      <trkpt lon="26.230961813658" lat="68.758626299419">
        <ele>163.80000305176</ele>
        <time>2023-12-31T09:39:43Z</time>
      </trkpt>
      <trkpt lon="26.230955552115" lat="68.758626642521">
        <ele>163.80000305176</ele>
        <time>2023-12-31T09:39:44Z</time>
      </trkpt>
      <trkpt lon="26.230949290572" lat="68.758626985623">
        <ele>163.80000305176</ele>
        <time>2023-12-31T09:39:45Z</time>
      </trkpt>
      <trkpt lon="26.230943029029" lat="68.758627328725">
        <ele>163.80000305176</ele>
        <time>2023-12-31T09:39:46Z</time>
      </trkpt>
      <trkpt lon="26.230936767487" lat="68.758627671827">
        <ele>163.80000305176</ele>
        <time>2023-12-31T09:39:47Z</time>
      </trkpt>
      <trkpt lon="26.230930505944" lat="68.758628014929">
        <ele>163.80000305176</ele>
        <time>2023-12-31T09:39:48Z</time>
      </trkpt>
      <trkpt lon="26.230924244401" lat="68.758628358031">
        <ele>163.80000305176</ele>
        <time>2023-12-31T09:39:49Z</time>
      </trkpt>
      <trkpt lon="26.230917982859" lat="68.758628701133">
        <ele>163.80000305176</ele>
        <time>2023-12-31T09:39:50Z</time>
      </trkpt>
      <trkpt lon="26.230911721316" lat="68.758629044235">
        <ele>163.80000305176</ele>
        <time>2023-12-31T09:39:51Z</time>
      </trkpt>
      <trkpt lon="26.230905459773" lat="68.758629387337">
        <ele>163.80000305176</ele>
        <time>2023-12-31T09:39:52Z</time>
      </trkpt>
      <trkpt lon="26.23089919823" lat="68.758629730439">
        <ele>163.80000305176</ele>
        <time>2023-12-31T09:39:53Z</time>
      </trkpt>
      <trkpt lon="26.230892936688" lat="68.758630073541">
        <ele>163.80000305176</ele>
        <time>2023-12-31T09:39:54Z</time>
      </trkpt>
      <trkpt lon="26.230886675145" lat="68.758630416643">
        <ele>163.80000305176</ele>
        <time>2023-12-31T09:39:55Z</time>
      </trkpt>
      <trkpt lon="26.230880413602" lat="68.758630759745">
        <ele>163.80000305176</ele>
        <time>2023-12-31T09:39:56Z</time>
      </trkpt>
      <trkpt lon="26.23087415206" lat="68.758631102847">
        <ele>163.80000305176</ele>
        <time>2023-12-31T09:39:57Z</time>
      </trkpt>
      <trkpt lon="26.230867890517" lat="68.758631445949">
        <ele>163.80000305176</ele>
        <time>2023-12-31T09:39:58Z</time>
      </trkpt>
      <trkpt lon="26.230861628974" lat="68.758631789051">
        <ele>163.80000305176</ele>
        <time>2023-12-31T09:39:59Z</time>
      </trkpt>
      <trkpt lon="26.230855367431" lat="68.758632132153">
        <ele>163.80000305176</ele>
        <time>2023-12-31T09:40:00Z</time>
      </trkpt>
      <trkpt lon="26.230849105889" lat="68.758632475255">
        <ele>163.80000305176</ele>
        <time>2023-12-31T09:40:01Z</time>
      </trkpt>
      <trkpt lon="26.230842844346" lat="68.758632818357">
        <ele>163.80000305176</ele>
        <time>2023-12-31T09:40:02Z</time>
      </trkpt>
      <trkpt lon="26.230836582803" lat="68.758633161459">
        <ele>163.80000305176</ele>
        <time>2023-12-31T09:40:03Z</time>
      </trkpt>
      <trkpt lon="26.230830321261" lat="68.758633504561">
        <ele>163.80000305176</ele>
        <time>2023-12-31T09:40:04Z</time>
      </trkpt>
      <trkpt lon="26.230824059718" lat="68.758633847663">
        <ele>163.80000305176</ele>
        <time>2023-12-31T09:40:05Z</time>
      </trkpt>
      <trkpt lon="26.230817798175" lat="68.758634190765">
        <ele>163.80000305176</ele>
        <time>2023-12-31T09:40:06Z</time>
      </trkpt>
      <trkpt lon="26.230811536632" lat="68.758634533867">
        <ele>163.80000305176</ele>
        <time>2023-12-31T09:40:07Z</time>
      </trkpt>
      <trkpt lon="26.23080527509" lat="68.758634876969">
        <ele>163.80000305176</ele>
        <time>2023-12-31T09:40:08Z</time>
      </trkpt>
      <trkpt lon="26.230799013547" lat="68.758635220071">
        <ele>163.80000305176</ele>
        <time>2023-12-31T09:40:09Z</time>
      </trkpt>
      <trkpt lon="26.230792752004" lat="68.758635563173">
        <ele>163.80000305176</ele>
        <time>2023-12-31T09:40:10Z</time>
      </trkpt>
      <trkpt lon="26.230786490462" lat="68.758635906275">
        <ele>163.80000305176</ele>
        <time>2023-12-31T09:40:11Z</time>
      </trkpt>
      <trkpt lon="26.230780228919" lat="68.758636249377">
        <ele>163.80000305176</ele>
        <time>2023-12-31T09:40:12Z</time>
      </trkpt>
      <trkpt lon="26.230773967376" lat="68.758636592479">
        <ele>163.80000305176</ele>
        <time>2023-12-31T09:40:13Z</time>
      </trkpt>
      <trkpt lon="26.230767705833" lat="68.758636935581">
        <ele>163.80000305176</ele>
        <time>2023-12-31T09:40:14Z</time>
      </trkpt>
      <trkpt lon="26.230761444291" lat="68.758637278683">
        <ele>163.80000305176</ele>
        <time>2023-12-31T09:40:15Z</time>
      </trkpt>
      <trkpt lon="26.230755182748" lat="68.758637621785">
        <ele>163.80000305176</ele>
        <time>2023-12-31T09:40:16Z</time>
      </trkpt>
      <trkpt lon="26.230748921205" lat="68.758637964887">
        <ele>163.80000305176</ele>
        <time>2023-12-31T09:40:17Z</time>
      </trkpt>
      <trkpt lon="26.230742659662" lat="68.758638307989">
        <ele>163.80000305176</ele>
        <time>2023-12-31T09:40:18Z</time>
      </trkpt>
      <trkpt lon="26.23073639812" lat="68.758638651091">
        <ele>163.80000305176</ele>
        <time>2023-12-31T09:40:19Z</time>
      </trkpt>
      <trkpt lon="26.230730136577" lat="68.758638994193">
        <ele>163.80000305176</ele>
        <time>2023-12-31T09:40:20Z</time>
      </trkpt>
      <trkpt lon="26.230723875034" lat="68.758639337295">
        <ele>163.80000305176</ele>
        <time>2023-12-31T09:40:21Z</time>
      </trkpt>
      <trkpt lon="26.230717613492" lat="68.758639680397">
        <ele>163.80000305176</ele>
        <time>2023-12-31T09:40:22Z</time>
      </trkpt>
      <trkpt lon="26.230711351949" lat="68.758640023499">
        <ele>163.80000305176</ele>
        <time>2023-12-31T09:40:23Z</time>
      </trkpt>
      <trkpt lon="26.230705090406" lat="68.758640366601">
        <ele>163.80000305176</ele>
        <time>2023-12-31T09:40:24Z</time>
      </trkpt>
      <trkpt lon="26.230698828863" lat="68.758640709703">
        <ele>163.80000305176</ele>
        <time>2023-12-31T09:40:25Z</time>
      </trkpt>
      <trkpt lon="26.230692567321" lat="68.758641052805">
        <ele>163.80000305176</ele>
        <time>2023-12-31T09:40:26Z</time>
      </trkpt>
      <trkpt lon="26.230686305778" lat="68.758641395907">
        <ele>163.80000305176</ele>
        <time>2023-12-31T09:40:27Z</time>
      </trkpt>
      <trkpt lon="26.230680044235" lat="68.758641739009">
        <ele>163.80000305176</ele>
        <time>2023-12-31T09:40:28Z</time>
      </trkpt>
      <trkpt lon="26.230673782693" lat="68.758642082111">
        <ele>163.80000305176</ele>
        <time>2023-12-31T09:40:29Z</time>
      </trkpt>
      <trkpt lon="26.23066752115" lat="68.758642425213">
        <ele>163.80000305176</ele>
        <time>2023-12-31T09:40:30Z</time>
      </trkpt>
      <trkpt lon="26.230661259607" lat="68.758642768315">
        <ele>163.80000305176</ele>
        <time>2023-12-31T09:40:31Z</time>
      </trkpt>
      <trkpt lon="26.230654998064" lat="68.758643111417">
        <ele>163.80000305176</ele>
        <time>2023-12-31T09:40:32Z</time>
      </trkpt>
      <trkpt lon="26.230648736522" lat="68.758643454519">
        <ele>163.80000305176</ele>
        <time>2023-12-31T09:40:33Z</time>
      </trkpt>
      <trkpt lon="26.230642474979" lat="68.758643797621">
        <ele>163.80000305176</ele>
        <time>2023-12-31T09:40:34Z</time>
      </trkpt>
      <trkpt lon="26.230636213436" lat="68.758644140723">
        <ele>163.80000305176</ele>
        <time>2023-12-31T09:40:35Z</time>
      </trkpt>
      <trkpt lon="26.230629951894" lat="68.758644483825">
        <ele>163.80000305176</ele>
        <time>2023-12-31T09:40:36Z</time>
      </trkpt>
      <trkpt lon="26.230623690351" lat="68.758644826927">
        <ele>163.80000305176</ele>
        <time>2023-12-31T09:40:37Z</time>
      </trkpt>
      <trkpt lon="26.230617428808" lat="68.758645170029">
        <ele>163.80000305176</ele>
        <time>2023-12-31T09:40:38Z</time>
      </trkpt>
      <trkpt lon="26.230611167265" lat="68.758645513131">
        <ele>163.80000305176</ele>
        <time>2023-12-31T09:40:39Z</time>
      </trkpt>
      <trkpt lon="26.230604905723" lat="68.758645856233">
        <ele>163.80000305176</ele>
        <time>2023-12-31T09:40:40Z</time>
      </trkpt>
      <trkpt lon="26.23059864418" lat="68.758646199335">
        <ele>163.80000305176</ele>
        <time>2023-12-31T09:40:41Z</time>
      </trkpt>
      <trkpt lon="26.230592382637" lat="68.758646542438">
        <ele>163.80000305176</ele>
        <time>2023-12-31T09:40:42Z</time>
      </trkpt>
      <trkpt lon="26.230586121095" lat="68.75864688554">
        <ele>163.80000305176</ele>
        <time>2023-12-31T09:40:43Z</time>
      </trkpt>
      <trkpt lon="26.230579859552" lat="68.758647228642">
        <ele>163.80000305176</ele>
        <time>2023-12-31T09:40:44Z</time>
      </trkpt>
      <trkpt lon="26.230573598009" lat="68.758647571744">
        <ele>163.80000305176</ele>
        <time>2023-12-31T09:40:45Z</time>
      </trkpt>
      <trkpt lon="26.230567336466" lat="68.758647914846">
        <ele>163.80000305176</ele>
        <time>2023-12-31T09:40:46Z</time>
      </trkpt>
      <trkpt lon="26.230561074924" lat="68.758648257948">
        <ele>163.80000305176</ele>
        <time>2023-12-31T09:40:47Z</time>
      </trkpt>
      <trkpt lon="26.230554813381" lat="68.75864860105">
        <ele>163.80000305176</ele>
        <time>2023-12-31T09:40:48Z</time>
      </trkpt>
      <trkpt lon="26.230548551838" lat="68.758648944152">
        <ele>163.80000305176</ele>
        <time>2023-12-31T09:40:49Z</time>
      </trkpt>
      <trkpt lon="26.230542290296" lat="68.758649287254">
        <ele>163.80000305176</ele>
        <time>2023-12-31T09:40:50Z</time>
      </trkpt>
      <trkpt lon="26.230536028753" lat="68.758649630356">
        <ele>163.80000305176</ele>
        <time>2023-12-31T09:40:51Z</time>
      </trkpt>
      <trkpt lon="26.23052976721" lat="68.758649973458">
        <ele>163.80000305176</ele>
        <time>2023-12-31T09:40:52Z</time>
      </trkpt>
      <trkpt lon="26.230523505667" lat="68.75865031656">
        <ele>163.80000305176</ele>
        <time>2023-12-31T09:40:53Z</time>
      </trkpt>
      <trkpt lon="26.230517244125" lat="68.758650659662">
        <ele>163.80000305176</ele>
        <time>2023-12-31T09:40:54Z</time>
      </trkpt>
      <trkpt lon="26.230510982582" lat="68.758651002764">
        <ele>163.80000305176</ele>
        <time>2023-12-31T09:40:55Z</time>
      </trkpt>
      <trkpt lon="26.230504721039" lat="68.758651345866">
        <ele>163.80000305176</ele>
        <time>2023-12-31T09:40:56Z</time>
      </trkpt>
      <trkpt lon="26.230498459497" lat="68.758651688968">
        <ele>163.80000305176</ele>
        <time>2023-12-31T09:40:57Z</time>
      </trkpt>
      <trkpt lon="26.230492197954" lat="68.75865203207">
        <ele>163.80000305176</ele>
        <time>2023-12-31T09:40:58Z</time>
      </trkpt>
      <trkpt lon="26.230485936411" lat="68.758652375172">
        <ele>163.80000305176</ele>
        <time>2023-12-31T09:40:59Z</time>
      </trkpt>
      <trkpt lon="26.230479674868" lat="68.758652718274">
        <ele>163.80000305176</ele>
        <time>2023-12-31T09:41:00Z</time>
      </trkpt>
      <trkpt lon="26.230473413326" lat="68.758653061376">
        <ele>163.80000305176</ele>
        <time>2023-12-31T09:41:01Z</time>
      </trkpt>
      <trkpt lon="26.230467151783" lat="68.758653404478">
        <ele>163.80000305176</ele>
        <time>2023-12-31T09:41:02Z</time>
      </trkpt>
      <trkpt lon="26.23046089024" lat="68.75865374758">
        <ele>163.80000305176</ele>
        <time>2023-12-31T09:41:03Z</time>
      </trkpt>
      <trkpt lon="26.230454628698" lat="68.758654090682">
        <ele>163.80000305176</ele>
        <time>2023-12-31T09:41:04Z</time>
      </trkpt>
      <trkpt lon="26.230448367155" lat="68.758654433784">
        <ele>163.80000305176</ele>
        <time>2023-12-31T09:41:05Z</time>
      </trkpt>
      <trkpt lon="26.230442105612" lat="68.758654776886">
        <ele>163.80000305176</ele>
        <time>2023-12-31T09:41:06Z</time>
      </trkpt>
      <trkpt lon="26.230435844069" lat="68.758655119988">
        <ele>163.80000305176</ele>
        <time>2023-12-31T09:41:07Z</time>
      </trkpt>
      <trkpt lon="26.230429582527" lat="68.75865546309">
        <ele>163.80000305176</ele>
        <time>2023-12-31T09:41:08Z</time>
      </trkpt>
      <trkpt lon="26.230423320984" lat="68.758655806192">
        <ele>163.80000305176</ele>
        <time>2023-12-31T09:41:09Z</time>
      </trkpt>
      <trkpt lon="26.230417059441" lat="68.758656149294">
        <ele>163.80000305176</ele>
        <time>2023-12-31T09:41:10Z</time>
      </trkpt>
      <trkpt lon="26.230410797899" lat="68.758656492396">
        <ele>163.80000305176</ele>
        <time>2023-12-31T09:41:11Z</time>
      </trkpt>
      <trkpt lon="26.230404536356" lat="68.758656835498">
        <ele>163.80000305176</ele>
        <time>2023-12-31T09:41:12Z</time>
      </trkpt>
      <trkpt lon="26.230398274813" lat="68.7586571786">
        <ele>163.80000305176</ele>
        <time>2023-12-31T09:41:13Z</time>
      </trkpt>
      <trkpt lon="26.23039201327" lat="68.758657521702">
        <ele>163.80000305176</ele>
        <time>2023-12-31T09:41:14Z</time>
      </trkpt>
    </trkseg>
  </trk>
</gpx>
