<?xml version="1.0" encoding="UTF-8"?>
<gpx xmlns="http://www.topografix.com/GPX/1/1" xmlns:gpxtpx="http://www.garmin.com/xmlschemas/TrackPointExtension/v1" xmlns:gpxx="http://www.garmin.com/xmlschemas/GpxExtensions/v3" xmlns:xsi="http://www.w3.org/2001/XMLSchema-instance" xsi:schemaLocation="http://www.topografix.com/GPX/1/1 http://www.topografix.com/GPX/1/1/gpx.xsd" version="1.1" creator="Garmin Fenix 6 Pro Solar (Black)">
  <metadata>
    <desc>Created with GOTOES STRAVA TOOLS Version 23.3</desc>
  </metadata>
  <trk>
    <trkseg>
      <trkpt lat="68.758494891346" lon="26.233359984518">
        <ele>163.80000305176</ele>
        <time>2023-12-31T09:33:20Z</time>
        <extensions>
          <gpxtpx:TrackPointExtension>
            <gpxtpx:atemp>-16.389999389648438</gpxtpx:atemp>
          </gpxtpx:TrackPointExtension>
        </extensions>
      </trkpt>
      <trkpt lat="68.758501753387" lon="26.233234753663">
        <ele>163.80000305176</ele>
        <time>2023-12-31T09:33:40Z</time>
        <extensions>
          <gpxtpx:TrackPointExtension>
            <gpxtpx:atemp>-16.389999389648438</gpxtpx:atemp>
          </gpxtpx:TrackPointExtension>
        </extensions>
      </trkpt>
      <trkpt lat="68.758508615427" lon="26.233109522809">
        <ele>163.80000305176</ele>
        <time>2023-12-31T09:34:00Z</time>
        <extensions>
          <gpxtpx:TrackPointExtension>
            <gpxtpx:atemp>-16.389999389648438</gpxtpx:atemp>
          </gpxtpx:TrackPointExtension>
        </extensions>
      </trkpt>
      <trkpt lat="68.758515477467" lon="26.232984291955">
        <ele>163.80000305176</ele>
        <time>2023-12-31T09:34:20Z</time>
        <extensions>
          <gpxtpx:TrackPointExtension>
            <gpxtpx:atemp>-16.389999389648438</gpxtpx:atemp>
          </gpxtpx:TrackPointExtension>
        </extensions>
      </trkpt>
      <trkpt lat="68.758522339508" lon="26.2328590611">
        <ele>163.80000305176</ele>
        <time>2023-12-31T09:34:40Z</time>
        <extensions>
          <gpxtpx:TrackPointExtension>
            <gpxtpx:atemp>-16.389999389648438</gpxtpx:atemp>
          </gpxtpx:TrackPointExtension>
        </extensions>
      </trkpt>
      <trkpt lat="68.758529201548" lon="26.232733830246">
        <ele>163.80000305176</ele>
        <time>2023-12-31T09:35:00Z</time>
        <extensions>
          <gpxtpx:TrackPointExtension>
            <gpxtpx:atemp>-16.389999389648438</gpxtpx:atemp>
          </gpxtpx:TrackPointExtension>
        </extensions>
      </trkpt>
      <trkpt lat="68.758536063588" lon="26.232608599392">
        <ele>163.80000305176</ele>
        <time>2023-12-31T09:35:20Z</time>
        <extensions>
          <gpxtpx:TrackPointExtension>
            <gpxtpx:atemp>-16.389999389648438</gpxtpx:atemp>
          </gpxtpx:TrackPointExtension>
        </extensions>
      </trkpt>
      <trkpt lat="68.758542925629" lon="26.232483368537">
        <ele>163.80000305176</ele>
        <time>2023-12-31T09:35:40Z</time>
        <extensions>
          <gpxtpx:TrackPointExtension>
            <gpxtpx:atemp>-16.389999389648438</gpxtpx:atemp>
          </gpxtpx:TrackPointExtension>
        </extensions>
      </trkpt>
      <trkpt lat="68.758549787669" lon="26.232358137683">
        <ele>163.80000305176</ele>
        <time>2023-12-31T09:36:00Z</time>
        <extensions>
          <gpxtpx:TrackPointExtension>
            <gpxtpx:atemp>-16.389999389648438</gpxtpx:atemp>
          </gpxtpx:TrackPointExtension>
        </extensions>
      </trkpt>
      <trkpt lat="68.758556649709" lon="26.232232906829">
        <ele>163.80000305176</ele>
        <time>2023-12-31T09:36:20Z</time>
        <extensions>
          <gpxtpx:TrackPointExtension>
            <gpxtpx:atemp>-16.389999389648438</gpxtpx:atemp>
          </gpxtpx:TrackPointExtension>
        </extensions>
      </trkpt>
      <trkpt lat="68.75856351175" lon="26.232107675974">
        <ele>163.80000305176</ele>
        <time>2023-12-31T09:36:40Z</time>
        <extensions>
          <gpxtpx:TrackPointExtension>
            <gpxtpx:atemp>-16.389999389648438</gpxtpx:atemp>
          </gpxtpx:TrackPointExtension>
        </extensions>
      </trkpt>
      <trkpt lat="68.75857037379" lon="26.23198244512">
        <ele>163.80000305176</ele>
        <time>2023-12-31T09:37:00Z</time>
        <extensions>
          <gpxtpx:TrackPointExtension>
            <gpxtpx:atemp>-16.389999389648438</gpxtpx:atemp>
          </gpxtpx:TrackPointExtension>
        </extensions>
      </trkpt>
      <trkpt lat="68.75857723583" lon="26.231857214266">
        <ele>163.80000305176</ele>
        <time>2023-12-31T09:37:20Z</time>
        <extensions>
          <gpxtpx:TrackPointExtension>
            <gpxtpx:atemp>-16.389999389648438</gpxtpx:atemp>
          </gpxtpx:TrackPointExtension>
        </extensions>
      </trkpt>
      <trkpt lat="68.758584097871" lon="26.231731983412">
        <ele>163.80000305176</ele>
        <time>2023-12-31T09:37:40Z</time>
        <extensions>
          <gpxtpx:TrackPointExtension>
            <gpxtpx:atemp>-16.389999389648438</gpxtpx:atemp>
          </gpxtpx:TrackPointExtension>
        </extensions>
      </trkpt>
      <trkpt lat="68.758590959911" lon="26.231606752557">
        <ele>163.80000305176</ele>
        <time>2023-12-31T09:38:00Z</time>
        <extensions>
          <gpxtpx:TrackPointExtension>
            <gpxtpx:atemp>-16.389999389648438</gpxtpx:atemp>
          </gpxtpx:TrackPointExtension>
        </extensions>
      </trkpt>
      <trkpt lat="68.758597821951" lon="26.231481521703">
        <ele>163.80000305176</ele>
        <time>2023-12-31T09:38:20Z</time>
        <extensions>
          <gpxtpx:TrackPointExtension>
            <gpxtpx:atemp>-16.389999389648438</gpxtpx:atemp>
          </gpxtpx:TrackPointExtension>
        </extensions>
      </trkpt>
      <trkpt lat="68.758604683992" lon="26.231356290849">
        <ele>163.80000305176</ele>
        <time>2023-12-31T09:38:40Z</time>
        <extensions>
          <gpxtpx:TrackPointExtension>
            <gpxtpx:atemp>-16.389999389648438</gpxtpx:atemp>
          </gpxtpx:TrackPointExtension>
        </extensions>
      </trkpt>
      <trkpt lat="68.758611546032" lon="26.231231059994">
        <ele>163.80000305176</ele>
        <time>2023-12-31T09:39:00Z</time>
        <extensions>
          <gpxtpx:TrackPointExtension>
            <gpxtpx:atemp>-16.389999389648438</gpxtpx:atemp>
          </gpxtpx:TrackPointExtension>
        </extensions>
      </trkpt>
      <trkpt lat="68.758618408072" lon="26.23110582914">
        <ele>163.80000305176</ele>
        <time>2023-12-31T09:39:20Z</time>
        <extensions>
          <gpxtpx:TrackPointExtension>
            <gpxtpx:atemp>-16.389999389648438</gpxtpx:atemp>
          </gpxtpx:TrackPointExtension>
        </extensions>
      </trkpt>
      <trkpt lat="68.758625270113" lon="26.230980598286">
        <ele>163.80000305176</ele>
        <time>2023-12-31T09:39:40Z</time>
        <extensions>
          <gpxtpx:TrackPointExtension>
            <gpxtpx:atemp>-16.389999389648438</gpxtpx:atemp>
          </gpxtpx:TrackPointExtension>
        </extensions>
      </trkpt>
      <trkpt lat="68.758632132153" lon="26.230855367431">
        <ele>163.80000305176</ele>
        <time>2023-12-31T09:40:00Z</time>
        <extensions>
          <gpxtpx:TrackPointExtension>
            <gpxtpx:atemp>-16.389999389648438</gpxtpx:atemp>
          </gpxtpx:TrackPointExtension>
        </extensions>
      </trkpt>
      <trkpt lat="68.758638994193" lon="26.230730136577">
        <ele>163.80000305176</ele>
        <time>2023-12-31T09:40:20Z</time>
        <extensions>
          <gpxtpx:TrackPointExtension>
            <gpxtpx:atemp>-16.389999389648438</gpxtpx:atemp>
          </gpxtpx:TrackPointExtension>
        </extensions>
      </trkpt>
      <trkpt lat="68.758645856233" lon="26.230604905723">
        <ele>163.80000305176</ele>
        <time>2023-12-31T09:40:40Z</time>
        <extensions>
          <gpxtpx:TrackPointExtension>
            <gpxtpx:atemp>-16.389999389648438</gpxtpx:atemp>
          </gpxtpx:TrackPointExtension>
        </extensions>
      </trkpt>
      <trkpt lat="68.758652718274" lon="26.230479674868">
        <ele>163.80000305176</ele>
        <time>2023-12-31T09:41:00Z</time>
        <extensions>
          <gpxtpx:TrackPointExtension>
            <gpxtpx:atemp>-16.389999389648438</gpxtpx:atemp>
          </gpxtpx:TrackPointExtension>
        </extensions>
      </trkpt>
    </trkseg>
  </trk>
</gpx>